Sl. No.,State,Facility No.,Facility Name/ Licensee,NJEMS PI/ Dep No./ID,Waste Type,Phone,Location,Municipality,City,Pincode,Owner/ Owner Type,Hours,Features,Latitude,Longitude,,,,,,,,,,,,,,,
1,Delaware,1,Cheswold,,<Plastic & Other>,1-800-404-7080,"54 Fork Branch Road
",,Dover ,19904,,,"1. Pay-as-you-throw basis: 1 bag of disposed waste = $1.00
2. No cash transactions onsite - pre-paid tickets should be purchased in advance (online or in person)
3. Maximum bag size = 33 gallons",39.1605,-75.5974,,,,,,,,,,,,,,,
,,2,Ellendale,,<Plastic & Other>,1-800-404-7080,"13870 South Old State Road
",,Ellendale,19941,," Monday - Saturday
8:30am-3:30pm",,38.8057,-75.4056,,,,,,,,,,,,,,,
,,3,Long Neck,,<Plastic & Other>,1-800-404-7080,28963 Mount Joy Road,,Millsboro,19966,,"Monday - Saturday
8:30am-3:30pm
Sundays (May-September): 10am-2pm",,38.6595,-75.2464,,,,,,,,,,,,,,,
,,4,Omar,,<Plastic & Other>,1-800-404-7080,33086 Burton Farm Road,,Frankford,19945,,"Monday - Saturday
8:30am-3:30pm
Sundays (May-September): 10am-2pm",,38.5177,-75.2006,,,,,,,,,,,,,,,
,,5,Bridgeville,,<Plastic & Other>,1-800-404-7080,16539 Polk Road,,Bridgeville,19933,,"Monday-Saturday
8:30am-3:30pm",,38.7366,-75.6088,,,,,,,,,,,,,,,
,,6,Republic,,<Plastic & Other>,302-658-4097,1420 New York Ave,,Wilmington,19801,,"Monday-Friday:
8:00 am-5:00 pm
Saturday:
8:00 am-12:00 pm",In collaboration with Republic and Revolution Recovery,39.7378,-75.5497,,,,,,,,,,,,,,,
2,Maine,1,STEVE SWASEY INC,S-022500-WK- A-P,<Plastic & Other>,(207) 392-3556,P.O. BOX 132 ANDOVER,,ANDOVER,04216,,,,44.6637,-70.7967,,,,,,,,,,,,,,,
,,2,"COUSINEAU, INC.",S-022141-WK- A-P,<Plastic & Other>,(207) 645-4448,845 US ROUTE 2 EAST WILTON,,ANSON,04294,,,,44.5928,-70.2281,,,,,,,,,,,,,,,
,,3,AIM RECYCLING USA LLC (ARUNDEL),S-022259-WK- A-N,<Plastic & Other>,(207) 465-2212,P.O. BOX 400 OAKLAND,,ARUNDEL,04963,,,,44.5173,-69.7401,,,,,,,,,,,,,,,
,,4,LABBE EXCAVATION INC,S-022330-WK- A-P,<Plastic & Other>,(207) 282-1426,PO BOX 1111 BIDDEFORD,,ARUNDEL,04005,,,,43.4935,-70.4883,,,,,,,,,,,,,,,
,,5,PROLERIZED NEW ENGLAND CO LLC,S-011181-WK- B-R,<Plastic & Other>,(207) 786-3531,69 ROVER ST EVERETT,,AUBURN,02149,,,,42.4112,-71.0514,,,,,,,,,,,,,,,
,,6,WOODLAND PULP LLC,S-008837-WK-AH-N,<Plastic & Other>,(207) 427-3311,144 MAIN ST BAILEYVILLE,,BAILEYVILLE,04694,,,,45.1035,-67.4722,,,,,,,,,,,,,,,
,,7,WOODLAND PULP LLC,S-008837-WK-AF-N,<Plastic & Other>,(207) 427-3311,144 MAIN STREET BAILEYVILLE,,BAILEYVILLE,4694,,,,45.1035,-67.4722,,,,,,,,,,,,,,,
,,8,P. Y. ESTES & SON INC,S-022434-WK- A-P,<Plastic & Other>,(207) 625-3317,PO BOX 86 102 DEPOT RD,,BALDWIN,,,,,0,0,,,,,,,,,,,,,,,
,,9,AIM RECYCLING USA LLC (BANGOR),S-022260-WK- A-N,<Plastic & Other>,(207) 465-2212,P.O. BOX 400 OAKLAND,,BANGOR,4963,,,,44.5173,-69.7401,,,,,,,,,,,,,,,
,,10,FLYING PLACE LLC,S-022360-WK- B-N,<Plastic & Other>,(207) 497-2261,125 BLACK DUCK RD BEALS,,BEALS,4611,,,,44.513,-67.6056,,,,,,,,,,,,,,,
,,11,MICK CONSTRUCTION CORP,S-022287-WK- A-P,<Plastic & Other>,(603) 742-0606,PO BOX 160 ROLLINGSFORD,,BERWICK,3869,,,,43.2269,-70.8332,,,,,,,,,,,,,,,
,,12,BERWICK IRON & METAL RECYCLING,S-022349-WK- A-N,<Plastic & Other>,(207) 698-9933,PO BOX 366 BERWICK,,BERWICK,3901,,,,43.2899,-70.855,,,,,,,,,,,,,,,
,,13,D.A. WILSON & CO.,S-021835-WK- B-P,<Plastic & Other>,(207) 824-2417,673 VERNON STREET BETHEL,,BETHEL,4217,,,,44.4162,-70.8037,,,,,,,,,,,,,,,
,,14,CROSS SAND & GRAVEL LLC,S-022209-WK- C-P,<Plastic & Other>,(207) 890-1954,PO BOX 158 BETHEL,,BETHEL,4217,,,,44.4162,-70.8037,,,,,,,,,,,,,,,
,,15,A-B CRUSHING & SCREENING,S-022485-WK- A-P,<Plastic & Other>,(207) 357-4892,6 MARTIN ROAD RUMFORD,,BETHEL,4276,,,,44.5434,-70.5645,,,,,,,,,,,,,,,
,,16,RAY LABBE & SONS INC,S-022272-WK- A-P,<Plastic & Other>,(207) 725-7336,PO BOX 308 BRUNSWICK,,BOWDOIN,4011,,,,43.8973,-69.9779,,,,,,,,,,,,,,,
,,17,R ROLFE CORP,S-022240-WK- A-P,<Plastic & Other>,(207) 647-9500,91 HOME RUN RD BRIDGTON,,BRIDGTON,4009,,,,44.052,-70.7241,,,,,,,,,,,,,,,
,,18,"PEMAQUID STONE, LLC",S-022439-WK- A-P,<Plastic & Other>,(207) 685-4583,103 S. ROAD SOUTH BRISTOL,,BRISTOL,4568,,,,43.8677,-69.5614,,,,,,,,,,,,,,,
,,19,K & W AGGREGATES LLC,S-022390-WK- A-P,<Plastic & Other>,(207) 625-2468,PO BOX 81 DENMARK,,BROWNFIELD,4022,,,,43.9755,-70.7924,,,,,,,,,,,,,,,
,,20,BRUNSWICK PUBLIC WORKS,S-008458-WK- R-N,<Plastic & Other>,(207) 725-6654,9 INDUSTRY RD BRUNSWICK,,BRUNSWICK,4011,,,,43.8973,-69.9779,,,,,,,,,,,,,,,
,,21,VILLAGE GREEN ME LLC & VILLAGE GREEN BRUNSWICK LA,S-022403-WK- A-N,<Plastic & Other>,(512) 588-3283,TECH PLACE 74 ORION ST. STE1,,BRUNSWICK,,,,,0,0,,,,,,,,,,,,,,,
,,22,"RAY LABBE & SONS, INC.",S-022506-WK- A-P,<Plastic & Other>,(207) 725-7336,4 HIGHLAND ROAD BRUNSWICK,,BRUNSWICK,4011,,,,43.8973,-69.9779,,,,,,,,,,,,,,,
,,23,"BURLINGTON, TOWN OF",S-022397-WK- A-P,<Plastic & Other>,(207) 732-3985,PO BOX 70 BURLINGTON,,BURLINGTON,4417,,,,45.2349,-68.379,,,,,,,,,,,,,,,
,,24,GORHAM SAND & GRAVEL INC,S-022172-WK- A-P,<Plastic & Other>,(207) 839-2442,939 PARKER FARM RD BUXTON,,BUXTON,4093,,,,43.6379,-70.5189,,,,,,,,,,,,,,,
,,25,POMPEO SAND & GRAVEL INC,S-022291-WK- A-P,<Plastic & Other>,(207) 929-8002,PO BOX 321 GORHAM,,BUXTON,4038,,,,43.6843,-70.468,,,,,,,,,,,,,,,
,,26,PETER D PINKHAM INC,S-022395-WK- A-P,<Plastic & Other>,(207) 929-9636,PO BOX 279 BAR MILLS,,BUXTON,4004,,,,43.6131,-70.5498,,,,,,,,,,,,,,,
,,27,"RISBARA BROS. CONSTRUCTION, INC.",S-022508-WK- A-P,<Plastic & Other>,(207) 883-5528,P.O. BOX 485 SCARBOROUGH,,BUXTON,4092,,,,43.6843,-70.358,,,,,,,,,,,,,,,
,,28,AIM RECYCLING USA LLC (CARIBOU),S-022399-WK- A-N,<Plastic & Other>,(207) 492-1182,P.O. BOX 400 OAKLAND,,CARIBOU,4963,,,,44.5173,-69.7401,,,,,,,,,,,,,,,
,,29,CLARKS CARS & PARTS INC D/B/A CLARKS EAST SIDE SCRA,S-022410-WK- A-N,<Plastic & Other>,(207) 623-1725,PO BOX 424 HALLOWELL,,CHELSEA,4347,,,,44.2864,-69.8057,,,,,,,,,,,,,,,
,,30,"ATLANTIC LANDSCAPE CONSTRUCTION, INC",S-022393-WK- A-P,<Plastic & Other>,(207) 951-3100,814 BANGOR ROAD ELLSWORTH,,CLIFTON,4605,,,,44.5548,-68.4121,,,,,,,,,,,,,,,
,,31,COUNTY CONCRETE & CONST CO,S-021994-WK- C-P,<Plastic & Other>,(207) 483-2300,125 PIT RD COLUMBIA FALLS,,COLUMBIA FALLS,4623,,,,44.6699,-67.7534,,,,,,,,,,,,,,,
,,32,"CUMBERLAND, TOWN OF",S-022532-WK- A-N,<Plastic & Other>,(207) 829-2205,290 TUTTLE ROAD CUMBERLAND,,CUMBERLAND,4021,,,,43.7974,-70.2649,,,,,,,,,,,,,,,
,,33,"SHAW BROTHERS CONSTRUCTION, INC.",S-022135-WK- A-P,<Plastic & Other>,(207) 839-2552,PO BOX 69 GORHAM,,DAYTON,4038,,,,43.6843,-70.468,,,,,,,,,,,,,,,
,,34,"STEWART CONSTRUCTION, INC.",S-022217-WK- A-P,<Plastic & Other>,(207) 348-9963,39 LOWE RD DEER ISLE,,DEER ISLE,4627,,,,44.234,-68.6448,,,,,,,,,,,,,,,
,,35,"COPP EXCAVATING, INC.",S-022473-WK- A-P,<Plastic & Other>,(207) 353-7174,190 PINKHAM BROOK ROAD DURHAM,,DURHAM,4222,,,,43.9684,-70.1846,,,,,,,,,,,,,,,
,,36,CLAYTON BOWIE DBA BOWIE'S ORGANICS,S-022517-WK- A-P,<Plastic & Other>,(207) 798-1346,477 RIVER ROAD TOPSHAM,,DURHAM,4086,,,,43.9814,-69.9378,,,,,,,,,,,,,,,
,,37,"KATAHDIN MULCH, INC.",S-022228-WK- A-N,<Plastic & Other>,(207) 827-4837,29 CHAMPION LN MILFORD,,EAST MILLINOCKET,4461,,,,44.9393,-68.6296,,,,,,,,,,,,,,,
,,38,"HUBER ENGINEERED WOODS, LLC",S-022205-WK- B-P,<Plastic & Other>,(207) 488-2051,333 STATION RD EASTON,,EASTON,4740,,,,46.6357,-67.9018,,,,,,,,,,,,,,,
,,39,AGGREGATE RECYCLING CORP,S-021818-WK- C-N,<Plastic & Other>,(207) 439-5584,PO BOX 363 ELIOT,,ELIOT,3903,,,,43.1309,-70.7822,,,,,,,,,,,,,,,
,,40,AGGREGATE RECYCLING CORP,S-021818-WK- B-N,<Plastic & Other>,(207) 439-5584,PO BOX 363 ELIOT,,ELIOT,3903,,,,43.1309,-70.7822,,,,,,,,,,,,,,,
,,41,"YORK WOODS TREE SERVICE, LLC",S-022435-WK- A-P,<Plastic & Other>,(207) 384-5088,300 HAROLD L. DOW HWY ELIOT,,ELIOT,3903,,,,43.1309,-70.7822,,,,,,,,,,,,,,,
,,42,RF JORDAN & SONS,S-022241-WK- D-P,<Plastic & Other>,(207) 667-5236,85 WATER ST ELLSWORTH,,ELLSWORTH,4605,,,,44.5548,-68.4121,,,,,,,,,,,,,,,
,,43,EXETER AGRI-ENERGY,S-022362-WK- A-N,<Plastic & Other>,(207) 379-2963,226 FOGLER RD EXETER,,EXETER,4435,,,,44.9679,-69.1079,,,,,,,,,,,,,,,
,,44,PIKE INDUSTRIES,S-020567-WK- A-P,<Plastic & Other>,(207) 782-2411,145 RIVER ROAD LEWISTON,,FAIRFIELD,4240,,,,44.0985,-70.1916,,,,,,,,,,,,,,,
,,45,BDS WASTE DISPOSAL INC,S-022501-WK- A-N,<Plastic & Other>,(207) 278-3833,PO BOX 319 FAIRFIELD,,FAIRFIELD,4937,,,,44.6463,-69.6802,,,,,,,,,,,,,,,
,,46,CHASE EXCAVATING INC,S-022407-WK- A-P,<Plastic & Other>,(207) 797-9093,56 GRAY RD FALMOUTH,,FALMOUTH,4105,,,,43.734,-70.2625,,,,,,,,,,,,,,,
,,47,AROOSTOOK WASTE SOLUTIONS,S-003707-WK- H-N,<Plastic & Other>,(207) 473-7840,P.O. BOX 605 CARIBOU,,FORT FAIRFIELD,4736,,,,46.8706,-68.0204,,,,,,,,,,,,,,,
,,48,"TNT ROAD COMPANY, INC.",S-022198-WK- B-P,<Plastic & Other>,(207) 834-5073,110 CHARETTE HILL FORT KENT,,FORT KENT,4743,,,,47.2587,-68.5895,,,,,,,,,,,,,,,
,,49,TRACY BROTHERS CONSTRUCTION,S-022520-WK- A-P,<Plastic & Other>,(207) 479-1999,49 OLD COUNTY ROAD HANCOCK,,FRANKLIN,4640,,,,44.5046,-68.2402,,,,,,,,,,,,,,,
,,50,E DOUGLASS EXC,S-022460-WK- A-P,<Plastic & Other>,(207) 743-4398,36 CHICKADEE LANE BRIDGTON,,FRYEBURG,4009,,,,44.052,-70.7241,,,,,,,,,,,,,,,
,,51,MAINE MOSS EXCAVATING,S-022143-WK- A-P,<Plastic & Other>,(207) 371-2853,PO BOX 319 GEORGETOWN,,GEORGETOWN,4548,,,,43.8054,-69.7453,,,,,,,,,,,,,,,
,,52,"SHAW BROTHERS CONSTRUCTION, INC.",S-021420-WK- A-P,<Plastic & Other>,(207) 839-2552,P.O. BOX 69 GORHAM,,GORHAM,4038,,,,43.6843,-70.468,,,,,,,,,,,,,,,
,,53,NEW ENGLAND WASTE SVCS OF ME INC D/B/A NEW ENGLA,S-022297-WK- A-N,<Plastic & Other>,(207) 781-5011,110 MAIN STREET SUITE 1308,,GORHAM,,,,,0,0,,,,,,,,,,,,,,,
,,54,SHAW EARTHWORKS INC,S-022357-WK- A-P,<Plastic & Other>,(207) 839-7955,PO BOX 314 GORHAM,,GORHAM,4038,,,,43.6843,-70.468,,,,,,,,,,,,,,,
,,55,LKQ GORHAM AUTO PARTS CORP.,S-022462-WK-A-N,<Plastic & Other>,(207) 839-3080,192 NARRAGANSETT STREET GORHAM,,GORHAM,4038,,,,43.6843,-70.468,,,,,,,,,,,,,,,
,,56,R.J. GRONDIN & SONS,S-022527-WK- A-P,<Plastic & Other>,(207) 854-1147,11 BARTLETT ROAD GORHAM,,GORHAM,4038,,,,43.6843,-70.468,,,,,,,,,,,,,,,
,,57,K-B CORP,S-021233-WK- A-P,<Plastic & Other>,(207) 827-2450,PO BOX 28 GREENBUSH,,GREENBUSH,4418,,,,45.0803,-68.6509,,,,,,,,,,,,,,,
,,58,"FIBERIGHT, LLC & MUNICIPAL REVIEW COMMITTEE, INC.",S-022458-WK- A-N,<Plastic & Other>,,1450 SOUTH ROLLING ROAD BALTIMORE,,HAMPDEN,21227,,,,39.2309,-76.6969,,,,,,,,,,,,,,,
,,59,EUROVIA ATLANTIC COAST LLC DBA NORTHEAST PAVING,S-022511-WK- A-P,<Plastic & Other>,(207) 667-9671,P.O. BOX 1142 HANCOCK,,HANCOCK,4640,,,,44.5046,-68.2402,,,,,,,,,,,,,,,
,,60,DYER EXCAVATION,S-022304-WK- A-P,<Plastic & Other>,(207) 583-4546,PO BOX 436 HARRISON,,HARRISON,4040,,,,44.1071,-70.6539,,,,,,,,,,,,,,,
,,61,"GARY POMEROY LOGGING, INC.",S-022261-WK- A-N,<Plastic & Other>,(207) 848-3171,1909 HAMMOND ST HERMON,,HERMON,4401,,,,44.8242,-68.7918,,,,,,,,,,,,,,,
,,62,J D RAYMOND TRANSPORT,S-022482-WK- B-P,<Plastic & Other>,(207) 564-2186,P.O. BOX 28 DOVER FOXCROFT,,HERMON,4426,,,,45.1877,-69.2045,,,,,,,,,,,,,,,
,,63,EUROVIA ATLANTIC COAST LLC DBA NORTHEAST PAVING,S-022512-WK- A-P,<Plastic & Other>,(207) 945-0873,953 ODLIN ROAD BANGOR,,HERMON,4401,,,,44.8242,-68.7918,,,,,,,,,,,,,,,
,,64,"WOODS EXCAVATING, LLC",S-022525-WK- A-P,<Plastic & Other>,(207) 839-4606,PO BOX 1282 WESTBROOK,,HOLLIS,4098,,,,43.677,-70.3712,,,,,,,,,,,,,,,
,,65,MCQUADE TIDD INDUSTRIES D/B/A STEELSTONE INDUSTRIE,S-022249-WK- A-P,<Plastic & Other>,(207) 532-2675,PO BOX 746 HOULTON,,HOULTON,4730,,,,46.1189,-67.863,,,,,,,,,,,,,,,
,,66,EUROVIA ATLANTIC COAST LLC DBA NORTHEAST PAVING,S-022514-WK-A-P,<Plastic & Other>,(207) 945-0873,953 ODLIN ROAD BANGOR,,HOULTON,4401,,,,44.8242,-68.7918,,,,,,,,,,,,,,,
,,67,DOUG GOTT & SONS INC,S-022165-WK- B-P,<Plastic & Other>,(207) 244-7461,110 BASS HARBOR RD SOUTHWEST HARBOR,,LAMOINE,4679,,,,44.2823,-68.3265,,,,,,,,,,,,,,,
,,68,CHARLES A PLANTE & SONS,S-022345-WK- B-P,<Plastic & Other>,(207) 324-2412,PO BOX 321 SPRINGVALE,,LEBANON,4083,,,,43.4715,-70.8064,,,,,,,,,,,,,,,
,,69,LEVESQUE'S EXCAVATION,S-022429-WK- A-P,<Plastic & Other>,(207) 490-2990,PO BOX 1444 SANFORD,,LEBANON,4073,,,,43.4285,-70.7585,,,,,,,,,,,,,,,
,,70,REENERGY LEWISTON LLC,S-013266-WK- E-R,<Plastic & Other>,(207) 783-2941,38 E PLOURDE PKWY LEWISTON,,LEWISTON,4240,,,,44.0985,-70.1916,,,,,,,,,,,,,,,
,,71,LOUISIANA-PACIFIC CORPORATION,S-022114-WK- C-P,<Plastic & Other>,(207) 532-7361,P.O. BOX 396 HOULTON,,LIMERICK,4730,,,,46.1189,-67.863,,,,,,,,,,,,,,,
,,72,CIA SALVAGE INC,S-022333-WK- A-N,<Plastic & Other>,(207) 793-8193,PO BOX 360 LIMERICK,,LIMERICK,4048,,,,43.6963,-70.7866,,,,,,,,,,,,,,,
,,73,"LEAVITT EARTHWORKS CO., INC",S-022558-WK- A-P,<Plastic & Other>,(207) 642-3675,PO BOX 703 STANDISH,,LIMINGTON,4084,,,,43.8142,-70.4807,,,,,,,,,,,,,,,
,,74,J BROWN ENTERPRISES INC,S-022370-WK- A-P,<Plastic & Other>,(207) 296-3399,602 BOWERBANK RD BOWERBANK,,LINCOLN,4426,,,,45.1877,-69.2045,,,,,,,,,,,,,,,
,,75,J BROWN ENTERPRISES INC,S-022396-WK- A-N,<Plastic & Other>,(207) 944-4664,602 BOWERBANK ROAD BOWERBANK,,LINCOLN,4426,,,,45.1877,-69.2045,,,,,,,,,,,,,,,
,,76,"LOVELL, TOWN OF",S-021076-WK- A-P,<Plastic & Other>,,1069 MAIN ST LOVELL,,LOVELL,4051,,,,44.1614,-70.93,,,,,,,,,,,,,,,
,,77,"ST ONGE, ROBERT L",S-021772-WK- A-P,<Plastic & Other>,(207) 499-7886,98 NOT A ROAD LYMAN,,LYMAN,4002,,,,43.4875,-70.6961,,,,,,,,,,,,,,,
,,78,PERMA TREAT CORP,S-021519-WK- B-N,<Plastic & Other>,(860) 349-1133,74 AIRLINE ROAD DURHAM,,MATTAWAMKEAG,6422,,,,41.465,-72.6875,,,,,,,,,,,,,,,
,,79,HYPONEX,S-021556-WK- A-N,<Plastic & Other>,(203) 642-7591,14111 SCOTTSLAWN RD MARYSVILLE,,MEDWAY,43041,,,,40.2364,-83.3671,,,,,,,,,,,,,,,
,,80,EUROVIA ATLANTIC COAST LLC DBA NORTHEAST PAVING,S-022513-WK- A-P,<Plastic & Other>,(207) 945-0873,953 ODLIN ROAD BANGOR,,MEDWAY,4401,,,,44.8242,-68.7918,,,,,,,,,,,,,,,
,,81,ND PAPER INC FORMERLY CATALYST PAPER OPERATIONS I,S-021787-WK- A-N,<Plastic & Other>,(207) 364-4521,35 HARTFORD ST RUMFORD,,MEXICO,4276,,,,44.5434,-70.5645,,,,,,,,,,,,,,,
,,82,NORTHLAND SERVICES INC,S-021840-WK- A-N,<Plastic & Other>,(207) 827-4837,29 CHAMPION LN MILFORD,,MILFORD,4461,,,,44.9393,-68.6296,,,,,,,,,,,,,,,
,,83,THORNTON CONSTRUCTION INC,S-022342-WK- A-P,<Plastic & Other>,(207) 827-0352,PO BOX 529 MILFORD,,MILFORD,4461,,,,44.9393,-68.6296,,,,,,,,,,,,,,,
,,84,MILLINOCKET MULCH LLC AND WEST MILLINOCKET MULCH,S-022531-WK- A-N,<Plastic & Other>,(207) 827-4837,29 CHAMPION ROAD MILFORD,,MILLINOCKET,4461,,,,44.9393,-68.6296,,,,,,,,,,,,,,,
,,85,SONGO LOCKS SAND & GRAVEL,S-022317-WK- A-N,<Plastic & Other>,(207) 693-4756,PO BOX 829 SOUTH CASCO,,NAPLES,4077,,,,43.91,-70.5245,,,,,,,,,,,,,,,
,,86,Q-TEAM INC,S-022374-WK- A-N,<Plastic & Other>,(207) 693-3831,PO BOX 4096 NAPLES,,NAPLES,4055,,,,43.9681,-70.5988,,,,,,,,,,,,,,,
,,87,DAVID W MACDONALD INC,S-022350-WK- A-P,<Plastic & Other>,(207) 657-3256,58 MACDONALD DRIVE NEW GLOUCESTER,,NEW GLOUCESTER,4260,,,,43.9608,-70.2974,,,,,,,,,,,,,,,
,,88,WASTE MGT DISP SERV OF ME INC,S-010735-WK-UQ-N,<Plastic & Other>,(207) 634-2714,P.O. BOX 4745 LCLARK12@WM.COM,,NORRIDGEWOCK,,,,,0,0,,,,,,,,,,,,,,,
,,89,MERLE L LLOYD & SONS,S-021602-WK- A-P,<Plastic & Other>,(207) 696-3084,PO BOX 421 ANSON,,NORRIDGEWOCK,4911,,,,44.7831,-69.9309,,,,,,,,,,,,,,,
,,90,PUTNAM LUMBER,S-022124-WK- A-P,<Plastic & Other>,(207) 651-1213,P.O. BOX 559 VIEQUES,,NORTH BERWICK,765,,,,0,0,,,,,,,,,,,,,,,
,,91,"NORTH YARMOUTH, TOWN OF",S-022534-WK- A-P,<Plastic & Other>,(207) 829-3705,10 VILLAGE SQUARE RD NORTH YARMOUTH,,NORTH YARMOUTH,4097,,,,43.838,-70.2001,,,,,,,,,,,,,,,
,,92,AIM RECYCLING USA LLC (OAKLAND),S-022258-WK- A-N,<Plastic & Other>,(207) 465-2212,P.O. BOX 400 OAKLAND,,OAKLAND,4963,,,,44.5173,-69.7401,,,,,,,,,,,,,,,
,,93,"CROSS SAND AND GRAVEL, LLC",S-022551-WK- A-P,<Plastic & Other>,(207) 890-1954,PO BOX 158 BETHEL,,OXFORD,4217,,,,44.4162,-70.8037,,,,,,,,,,,,,,,
,,94,"NEPW LOGISTICS, INC",S-022484-WK- A-N,<Plastic & Other>,(207) 333-3345,70 QUARRY RD PORTLAND,,PARIS,4103,,,,43.6876,-70.2876,,,,,,,,,,,,,,,
,,95,"DOUGLAS W. JONES, INC",S-022544-WK- A-P,<Plastic & Other>,(207) 824-2258,PO BOX 158 BETHEL,,PARIS,4217,,,,44.4162,-70.8037,,,,,,,,,,,,,,,
,,96,"JOLLY GARDENER PRODUCTS, INC.",S-020513-WK- A-N,<Plastic & Other>,(207) 783-7397,PO BOX 527 POLAND,,POLAND,4274,,,,44.0474,-70.3899,,,,,,,,,,,,,,,
,,97,"MB BARK, LLC",S-021741-WK- A-N,<Plastic & Other>,(207) 786-0600,100 BARK MULCH DRIVE AUBURN,,POLAND,4210,,,,44.0948,-70.239,,,,,,,,,,,,,,,
,,98,PROLERIZED NEW ENGLAND CO LLC,S-022289-WK- A-N,<Plastic & Other>,(617) 389-8300,25 SANDQUIST STREET CONCORD,,PORTLAND,3301,,,,43.2185,-71.5277,,,,,,,,,,,,,,,
,,99,"GROUND PERFECTION SPECIALISTS, INC.",S-022358-WK- B-P,<Plastic & Other>,(207) 227-4726,P.O. BOX 402 PRESQUE ISLE,,PRESQUE ISLE,4769,,,,46.6842,-68.0118,,,,,,,,,,,,,,,
,,100,GROUND PERFECTION SPECIALISTS INC,S-022358-WK- A-P,<Plastic & Other>,(207) 227-4726,PO BOX 402 PRESQUE ISLE,,PRESQUE ISLE,4769,,,,46.6842,-68.0118,,,,,,,,,,,,,,,
,,101,EUROVIA ATLANTIC COAST LLC DBA NORTHEAST PAVING,S-022515-WK- A-P,<Plastic & Other>,(207) 764-4137,P.O. BOX 627 PRESQUE ISLE,,PRESQUE ISLE,4769,,,,46.6842,-68.0118,,,,,,,,,,,,,,,
,,102,VAUGHN D THIBODEAU II INC,S-022387-WK- A-P,<Plastic & Other>,(207) 974-2011,924 ODLIN RD BANGOR,,PROSPECT,4401,,,,44.8242,-68.7918,,,,,,,,,,,,,,,
,,103,"GLEN DUBE EXCAVATION, INC.",S-022479-WK- A-P,<Plastic & Other>,(207) 375-9588,P.O. BOX 819 SABATTUS,,SABATTUS,4280,,,,44.1133,-70.0748,,,,,,,,,,,,,,,
,,104,"SIMPSON INC, JEFFREY A",S-022075-WK- B-N,<Plastic & Other>,(207) 324-5412,281 JAGGER MILL RD SANFORD,,SANFORD,4073,,,,43.4285,-70.7585,,,,,,,,,,,,,,,
,,105,"SIMPSON INC, JEFFREY A",S-022075-WK- A-P,<Plastic & Other>,(207) 324-5412,281 JAGGER MILL RD SANFORD,,SANFORD,4073,,,,43.4285,-70.7585,,,,,,,,,,,,,,,
,,106,GOLDMARK LLC,S-022320-WK- A-P,<Plastic & Other>,(207) 251-3501,92 ALLY LN WELLS,,SANFORD,4090,,,,43.3144,-70.5969,,,,,,,,,,,,,,,
,,107,GORHAM SAND & GRAVEL INC,S-022377-WK- A-P,<Plastic & Other>,(207) 839-2442,939 PARKER FARM RD BUXTON,,SANFORD,4093,,,,43.6379,-70.5189,,,,,,,,,,,,,,,
,,108,CPRC GROUP LLC FORMERLY COMMERCIAL RECYCLING SY,S-021243-WK- A-N,<Plastic & Other>,(207) 883-3325,100 BARK MULCH DRIVE AUBURN,,SCARBOROUGH,4210,,,,44.0948,-70.239,,,,,,,,,,,,,,,
,,109,"SCARBOROUGH, TOWN OF -PUBLIC WORKS DEPT.",S-022457-WK- A-P,<Plastic & Other>,(207) 730-4400,20 WASHINGTON AVE SCARBOROUGH,,SCARBOROUGH,4074,,,,43.5835,-70.3457,,,,,,,,,,,,,,,
,,110,RICHARD CARRIER TRUCKING INC,S-021984-WK- B-P,<Plastic & Other>,(207) 474-6293,PO BOX 718 SKOWHEGAN,,SKOWHEGAN,4976,,,,44.7772,-69.6976,,,,,,,,,,,,,,,
,,111,RICHARD CARRIER TRUCKING INC,S-022309-WK- A-N,<Plastic & Other>,(207) 474-6293,PO BOX 718 SKOWHEGAN,,SKOWHEGAN,4976,,,,44.7772,-69.6976,,,,,,,,,,,,,,,
,,112,DOUCETTE FORESTRY PRODUCTS,S-022523-WK- A-P,<Plastic & Other>,(207) 752-1151,PO BOX 141 BERWICK,,SOUTH BERWICK,3901,,,,43.2899,-70.855,,,,,,,,,,,,,,,
,,113,DIRT DIRECT,S-022537-WK- A-P,<Plastic & Other>,(207) 808-3478,8 TAYLOR WAY GORHAM,,SOUTH PORTLAND,4038,,,,43.6843,-70.468,,,,,,,,,,,,,,,
,,114,"S.B. FREEPORT, INC.",S-022490-WK- A-P,<Plastic & Other>,(207) 839-2552,P.O. BOX 69 GORHAM,,STANDISH,4038,,,,43.6843,-70.468,,,,,,,,,,,,,,,
,,115,SHAW EARTHWORKS INC.,S-022541-WK- A-P,<Plastic & Other>,(207) 839-7955,PO BOX 314 GORHAM,,STANDISH,4038,,,,43.6843,-70.468,,,,,,,,,,,,,,,
,,116,"ASMAT, LLC.",S-022102-WK- B-P,<Plastic & Other>,(207) 375-5049,PO BOX 1330 BLUE HILL,,SURRY,4614,,,,44.4343,-68.5885,,,,,,,,,,,,,,,
,,117,"DUGAS, DAWN",S-022507-WK- B-P,<Plastic & Other>,(207) 667-5735,P O BOX 298 SURRY,,SURRY,4684,,,,44.4883,-68.5063,,,,,,,,,,,,,,,
,,118,"CROOKER CONSTRUCTION, LLC",S-020552-WK- A-P,<Plastic & Other>,(207) 729-5511,PO BOX 5001 TOPSHAM,,TOPSHAM,4086,,,,43.9814,-69.9378,,,,,,,,,,,,,,,
,,119,"CROOKER CONSTRUCTION, LLC",S-020552-WK- C-P,<Plastic & Other>,(207) 729-3332,PO BOX 5001 TOPSHAM,,TOPSHAM,4086,,,,43.9814,-69.9378,,,,,,,,,,,,,,,
,,120,GRIMMEL INDUSTRIES,S-020915-WK- B-N,<Plastic & Other>,(207) 784-6754,80 PEJEPSCOT VIL M TOPSHAM,,TOPSHAM,4086,,,,43.9814,-69.9378,,,,,,,,,,,,,,,
,,121,"CROOKER CONSTRUCTION, LLC",S-022469-WK- A-P,<Plastic & Other>,(207) 729-3332,103 LEWISTON ROAD POB #5001,,TOPSHAM,,,,,0,0,,,,,,,,,,,,,,,
,,122,DOUG GOTT & SONS INC,S-022267-WK- B-P,<Plastic & Other>,(207) 244-7461,110 BASS HARBOR RD SOUTHWEST HARBOR,,TREMONT,4679,,,,44.2823,-68.3265,,,,,,,,,,,,,,,
,,123,GORDON LIBBY INC,S-022193-WK- A-P,<Plastic & Other>,(207) 832-6313,PO BOX 849 WALDOBORO,,WALDOBORO,4572,,,,44.1046,-69.3745,,,,,,,,,,,,,,,
,,124,SODERBERG COMPANY INC,S-022313-WK- A-P,<Plastic & Other>,(207) 498-6300,460 YORK ST CARIBOU,,WASHBURN,4736,,,,46.8706,-68.0204,,,,,,,,,,,,,,,
,,125,PIKE INDUSTRIES,S-022449-WK- A-P,<Plastic & Other>,(207) 854-2561,ATTN: SANDY BURBANK BELMONT,,WASHINGTON,3220,,,,43.4512,-71.489,,,,,,,,,,,,,,,
,,126,FOGLIO INC.,S-022145-WK- B-P,<Plastic & Other>,(020) 724-7441,P.O. BOX 308 WATERBORO,,WATERBORO,4087,,,,43.5661,-70.7431,,,,,,,,,,,,,,,
,,127,"FOGLIO, INC.",S-022145-WK- A-P,<Plastic & Other>,(207) 247-6910,PO BOX 308 WATERBORO,,WATERBORO,4087,,,,43.5661,-70.7431,,,,,,,,,,,,,,,
,,128,"DEARBORN BROTHERS CONSTRUCTION,INC.",S-022221-WK- A-P,<Plastic & Other>,(207) 929-8812,999 NARRAGANSETT TRAIL BUXTON,,WATERBORO,4093,,,,43.6379,-70.5189,,,,,,,,,,,,,,,
,,129,BREX CORP,S-022116-WK- A-P,<Plastic & Other>,(207) 985-4447,258 MAGUIRE RD KENNEBUNK,,WELLS,4043,,,,43.3881,-70.5478,,,,,,,,,,,,,,,
,,130,PINE TREE WASTE INC,S-022316-WK- A-N,<Plastic & Other>,(207) 286-1668,110 MAIN ST SUITE 1308 SACO,,WEST BATH,4072,,,,43.5209,-70.4546,,,,,,,,,,,,,,,
,,131,SHAW BROTHERS CONST. INC.,S-022450-WK- A-P,<Plastic & Other>,(207) 839-2552,P.O. BOX 69 GORHAM,,WESTBROOK,4038,,,,43.6843,-70.468,,,,,,,,,,,,,,,
,,132,"CROOKER CONSTRUCTION, LLC",S-020552-WK- D-P,<Plastic & Other>,(207) 729-3332,PO BOX 5001 TOPSHAM,,WHITEFIELD,4086,,,,43.9814,-69.9378,,,,,,,,,,,,,,,
,,133,COUSINEAU INC,S-020610-WK- A-P,<Plastic & Other>,(207) 645-4448,845 US ROUTE 2 EAST WILTON,,WILTON,4294,,,,44.5928,-70.2281,,,,,,,,,,,,,,,
,,134,CR TANDBERG INC.,S-021969-WK- A-P,<Plastic & Other>,(207) 892-4124,PO BOX 381 WINDHAM,,WINDHAM,4062,,,,43.7958,-70.4143,,,,,,,,,,,,,,,
,,135,RJ GRONDIN & SONS,S-022227-WK- A-P,<Plastic & Other>,(207) 854-1147,11 BARTLETT RD GORHAM,,WINDHAM,4038,,,,43.6843,-70.468,,,,,,,,,,,,,,,
,,136,"S.B. FREEPORT, INC.",S-022491-WK- A-P,<Plastic & Other>,(207) 839-2552,P.O. BOX 69 GORHAM,,WINDHAM,4038,,,,43.6843,-70.468,,,,,,,,,,,,,,,
,,137,"LES WILSON & SONS, INC",S-022547-WK- A-P,<Plastic & Other>,(207) 854-4583,PO BOX 1028 WESTBROOK,,WINDHAM,4098,,,,43.677,-70.3712,,,,,,,,,,,,,,,
,,138,HAGAR ENTERPRISES,S-022492-WK- A-P,<Plastic & Other>,(207) 563-8588,54 BISCAY RD DAMARISCOTTA,,WINDSOR,4543,,,,44.0293,-69.5042,,,,,,,,,,,,,,,
,,139,MSR RECYCLING LLC,S-022302-WK- A-N,<Plastic & Other>,(207) 877-8985,88 VERTI DR WINSLOW,,WINSLOW,4901,,,,44.5543,-69.6178,,,,,,,,,,,,,,,
3,Maryland,1,Western Maryland PF&TS,2019-WPT-0632,<Plastic & Other>,,"13810 Hazmat Drive, Cumberland",,ALLEGANY,21502,PRI,,,39.5992,-78.8444,,,,,,,,,,,,,,,
,,2,Curtis Creek PF & TS,2018-WPT-0539,<Plastic & Other>,,"23 Stahl Point Road, Baltimore",,ANNE ARUNDEL,21226,PRI,,,39.2109,-76.5597,,,,,,,,,,,,,,,
,,3,Annapolis Junction PF & TS,2021-WPT-0158,<Plastic & Other>,,"8077 Brock Bridge Road, Jessup",,ANNE ARUNDEL,20794,PRI,,,39.1484,-76.7922,,,,,,,,,,,,,,,
,,4,"Biomedical Waste Services, Inc.",2016-WPT-0676,<Plastic & Other>,,"7610 Energy Pkwy, Curtis Bay",,ANNE ARUNDEL,21226,PRI,,,39.2109,-76.5597,,,,,,,,,,,,,,,
,,5,Baltimore Processing & Transfer Center,2019-WPT-0627,<Plastic & Other>,,"5800 Chemical Road, Baltimore",,BALTIMORE CITY,21226,PRI,,,39.2109,-76.5597,,,,,,,,,,,,,,,
,,6,Baltimore Recyling Center PF&TS,2019-WPT-0690,<Plastic & Other>,,"1030 Edison Highway, Baltimore",,BALTIMORE CITY,21213,PRI,,,39.3127,-76.581,,,,,,,,,,,,,,,
,,7,Daniels Sharpsmart PF&TS,2019-WPT-0633,<Plastic & Other>,,"6611 Chandlery Street, Baltimore",,BALTIMORE CITY,21224,PRI,,,39.2876,-76.5568,,,,,,,,,,,,,,,
,,8,L & J Processing Facility,2016-WPF-0634,<Plastic & Other>,,"222 North Calverton Road, Baltimore",,BALTIMORE CITY,21223,PRI,,,39.287,-76.6476,,,,,,,,,,,,,,,
,,9,Stericycle Medical Waste PF&TS,2016-WPT-0677,<Plastic & Other>,,"5901 Chemical Road, Baltimore",,BALTIMORE CITY,21226,PRI,,,39.2109,-76.5597,,,,,,,,,,,,,,,
,,10,Central Acceptance Facility,2017-WPT-0657,<Plastic & Other>,,"10275 Beaver Dam Road, Cockeysville",,BALTIMORE,21030,CTY,,,39.4919,-76.6677,,,,,,,,,,,,,,,
,,11,"Recovermat Mid-Atlantic, LLC PF",2021-WPF-0341,<Plastic & Other>,,"2202 Halethorpe Farm Road, Halethorpe",,BALTIMORE,21227,PRI,,,39.2309,-76.6969,,,,,,,,,,,,,,,
,,12,Southern Md. Recycling and PF,2020-WPF-0597,<Plastic & Other>,,"7659 Binnacle Lane, Owings",,CALVERT,20736,PRI,,,38.6955,-76.6061,,,,,,,,,,,,,,,
,,13,Northern Landfill PF&TS,2019-WPT-0541,<Plastic & Other>,,"1400 Baltimore Blvd., Westminster",,CARROLL,21157,CTY,,,39.5642,-76.9807,,,,,,,,,,,,,,,
,,14,Roll-Off Express PF,2013-WPT-0664,<Plastic & Other>,,"2900 Dede Road, Finksburg",,CARROLL,21048,PRI,,,39.4991,-76.9101,,,,,,,,,,,,,,,
,,15,Site B Solid Waste PF&TS,2021-WPT-0604,<Plastic & Other>,,"9031 Reichs Ford Road, Frederick",,FREDERICK,21704,CTY,,,39.3455,-77.3832,,,,,,,,,,,,,,,
,,16,Auston PF&TS,2017-WPT-0616,<Plastic & Other>,,"1202 Pauls Lane, Joppa",,HARFORD,21085,PRI,,,39.4242,-76.3541,,,,,,,,,,,,,,,
,,17,Alpha Ridge PF&TS,2017-WPT-0578,<Plastic & Other>,,"2350 Marriottsville Road, Marriottsville",,HOWARD,21104,CTY,,,39.3342,-76.9132,,,,,,,,,,,,,,,
,,18,Ameriwaste PF&TS,2016-WPT-0572,<Plastic & Other>,,"7150 Kit Kat Road, Elkridge",,HOWARD,21075,PRI,,,39.2058,-76.7531,,,,,,,,,,,,,,,
,,19,C & D Recovery PF,2019-WPF-0581,<Plastic & Other>,,"24120 Frederick Road, Clarksburg",,MONTGOMERY,20871,PRI,,,39.2387,-77.2794,,,,,,,,,,,,,,,
,,20,Shady Grove PF&TS,2016-WPT-0617,<Plastic & Other>,,"16101 Frederick Road, Derwood",,MONTGOMERY,20855,CTY,,,39.1345,-77.1477,,,,,,,,,,,,,,,
,,21,Dower House PF,2020-WPF-0563,<Plastic & Other>,,"5900 Dower House Road, Upper Marlboro",,PRINCE GEORGE'S,20772,PRI,,,38.8377,-76.798,,,,,,,,,,,,,,,
,,22,Recycle One PF&TS,2019-WPT-0647,<Plastic & Other>,,"4700 Lawrence Street, Hyattville",,PRINCE GEORGE'S,20781,PRI,,,38.9506,-76.9347,,,,,,,,,,,,,,,
,,23,Sheriff Road PF&TS,2018-WPT-0218,<Plastic & Other>,,"5800 Sheriff Road, Fairmont Heights",,PRINCE GEORGE'S,20743,PRI,,,38.8897,-76.8925,,,,,,,,,,,,,,,
,,24,Sun Services PF,2021-WPF-0639,<Plastic & Other>,,"11210 Somerset Avenue, Beltsville",,PRINCE GEORGE'S,20705,PRI,,,39.0455,-76.9242,,,,,,,,,,,,,,,
,,25,St. Mary's Co. MSW PF&TS,2019-WPT-0624,<Plastic & Other>,,"44825 St. Andrews Church Road, California",,ST. MARY'S,20619,CTY,,,38.3006,-76.5312,,,,,,,,,,,,,,,
,,26,Bennett Processing Facility,2016-WPF-0658,<Plastic & Other>,,"513-515 South Camden Ave., Fruitland",,WICOMICO,21826,PRI,,,38.3225,-75.6228,,,,,,,,,,,,,,,
,,27,Connelly Mill PF & TS,2015-WPT-0675,<Plastic & Other>,,"29790 Connelly Mill Road, Delmar",,WICOMICO,21875,PRI,,,38.4445,-75.5583,,,,,,,,,,,,,,,
4,Pennsylvania,1,CONSTRUCTION DEMOLITION RECYCLING,482869,<Plastic & Other>,,1040 CHURCHVILLE RD,Upper Southampton,SOUTHAMPTON,18966-4702,,,,40.1868,-75.0071,,,,,,,,,,,,,,,
,,2,WASTE MANAGEMENT OF INDIAN VALLEY,481784,<Plastic & Other>,,400 PROGRESS DR,Hilltown,TELFORD,18969-1191,,,,40.3205,-75.352,,,,,,,,,,,,,,,
,,3,CHAMPION RECCYLING INC MW OPERATION,548753,<Plastic & Other>,,575 TRESTLE PLACE,Downingtown,DOWNINGTOWN,19335,,,,40.0161,-75.7183,,,,,,,,,,,,,,,
,,4,ELDREDGE MW OPERATION,517845,<Plastic & Other>,,898 FERNHILL RD,West Goshen,WEST CHESTER,19380-4202,,,,39.9845,-75.5962,,,,,,,,,,,,,,,
,,5,DELAWARE COUNTY TRANSFER STATION #3,482346,<Plastic & Other>,,SUSSEX BLVD & MARPIT DR,Marple,BROOMALL,19008,,,,39.9747,-75.3602,,,,,,,,,,,,,,,
,,6,WASTE MGMT OF DEL VALLEY S MW OPERATION,633223,<Plastic & Other>,,408 S OAK AVE,Upper Darby,PRIMOS,19018-2736,,,,39.9218,-75.2876,,,,,,,,,,,,,,,
,,7,ABINGTON TWP TRANSF STA,482963,<Plastic & Other>,,995 FITZWATERTOWN RD,Upper Dublin,ABINGTON,19001,,,,40.1238,-75.1148,,,,,,,,,,,,,,,
,,8,BFI RIVER RD TRANSF STA,469707,<Plastic & Other>,,400 RIVER RD,Upper Merion,WEST CONSHOHOCKEN,19428-2600,,,,40.0825,-75.3044,,,,,,,,,,,,,,,
,,9,CONSHOHOCKEN RECYCLING & RAIL TRANSFER LLC,511029,<Plastic & Other>,,1060 CONSHOHOCKEN RD,Plymouth,CONSHOHOCKEN,19428,,,,40.0825,-75.3044,,,,,,,,,,,,,,,
,,10,GREAT VALLEY RECYCLING TRANSF STA,482404,<Plastic & Other>,,315 W 6TH ST,Bridgeport,BRIDGEPORT,19405-1129,,,,40.103,-75.3402,,,,,,,,,,,,,,,
,,11,L & S DEMO MW OPERATION,516095,<Plastic & Other>,,884 BROOK RD,Plymouth,CONSHOHOCKEN,19428,,,,40.0825,-75.3044,,,,,,,,,,,,,,,
,,12,LOWER MERION TWP TRANSFER STATION,481908,<Plastic & Other>,,1300 N WOODBINE AVE,Lower Merion,PENN VALLEY,19072-1241,,,,40.0177,-75.2594,,,,,,,,,,,,,,,
,,13,"MASCARO JP, & SONS INC.",294355,<Plastic & Other>,,109 WILE RD,Franconia,SOUDERTON,18964-2325,,,,40.2884,-75.341,,,,,,,,,,,,,,,
,,14,WM OF PA INC NORRISTOWN TRANSF STA,481720,<Plastic & Other>,,310 W WASHINGTON ST,Norristown,NORRISTOWN,19401-4623,,,,40.1245,-75.3304,,,,,,,,,,,,,,,
,,15,58TH STREET TRANSFER STATION,483498,<Plastic & Other>,,2209 S 58TH ST,Philadelphia,PHILADELPHIA,19143-5935,,,,39.9448,-75.2288,,,,,,,,,,,,,,,
,,16,AMER C&D LOGISTICS,716195,<Plastic & Other>,,3604 SOUTH PENROSE FERRY AVENUE,Philadelphia,PHILADELPHIA,19145,,,,39.9227,-75.1812,,,,,,,,,,,,,,,
,,17,"BURNS,RICHARD S. & COMPANY",482434,<Plastic & Other>,,4300 RISING SUN AVE,Philadelphia,PHILADELPHIA,19140-2720,,,,40.0118,-75.1456,,,,,,,,,,,,,,,
,,18,CITY OF PHILA/STREETS DEPT/NW TRANSF,483453,<Plastic & Other>,,5201 UMBRIA STREET,Philadelphia,PHILADELPHIA,19128,,,,40.0402,-75.2231,,,,,,,,,,,,,,,
,,19,FORGE INC,277705,<Plastic & Other>,,5245 BLEIGH AVE,Philadelphia,PHILADELPHIA,19136-4225,,,,40.0422,-75.0244,,,,,,,,,,,,,,,
,,20,GIRARD POINT TRANSF STATION,544388,<Plastic & Other>,,3600 SOUTH 26TH ST,Philadelphia,PHILADELPHIA,19145,,,,39.9227,-75.1812,,,,,,,,,,,,,,,
,,21,PHILA TRANSF & RECYCLING FAC,512634,<Plastic & Other>,,3605 GREYS FERRY AVE,Philadelphia,PHILADELPHIA,19146,,,,39.9379,-75.1794,,,,,,,,,,,,,,,
,,22,"QUICK-WAY,INC.",482039,<Plastic & Other>,,2960 ORTHODOX ST,Philadelphia,PHILA,19137,,,,40.0008,-75.0727,,,,,,,,,,,,,,,
,,23,"TRC, INC.",294707,<Plastic & Other>,,2904 S DELAWARE AVE,Philadelphia,PHILADELPHIA,19148-5106,,,,39.9207,-75.1595,,,,,,,,,,,,,,,
,,24,"UNITED STATES RECYCLING,INC.",483677,<Plastic & Other>,,6101 TACONY ST,Philadelphia,PHILADELPHIA,19135-2998,,,,40.0247,-75.0518,,,,,,,,,,,,,,,
,,25,HINKLE HAULING TRANSF STA,240707,<Plastic & Other>,,1725 BROOKSIDE RD,Lower Macungie,MACUNGIE,18062,,,,40.5285,-75.5666,,,,,,,,,,,,,,,
,,26,LEHIGH VALLEY RECYCLING INC,240686,<Plastic & Other>,,3947 PORTLAND ST,North Whitehall,COPLAY,18037,,,,40.6701,-75.4955,,,,,,,,,,,,,,,
,,27,WASTE MGMT ALLENTOWN TRANSF STA,493579,<Plastic & Other>,,2710 GOLDEN KEY RD,Weisenberg,KUTZTOWN,19530,,,,40.5214,-75.7774,,,,,,,,,,,,,,,
,,28,CHAPIN SEW DSPL,242384,<Plastic & Other>,,114 BRITTNEY LAYNE,New Columbus,HUNTINGTON MILLS,18622,,,,41.1906,-76.2335,,,,,,,,,,,,,,,
,,29,WASTE REDUCTION & RECYCLING CTR,240194,<Plastic & Other>,,2100 SANS SOUCI PKWY,Wilkes-Barre,WILKES BARRE,18702,,,,41.2208,-75.7736,,,,,,,,,,,,,,,
,,30,EAST PENN TRANSF STA,494295,<Plastic & Other>,,4687 HANOVERVILLE RD,Lower Nazareth,BETHLEHEM,18017,,,,40.6622,-75.3903,,,,,,,,,,,,,,,
,,31,MCAULIFFES RECYCLING PLT,239082,<Plastic & Other>,,2690 HOWERTOWN ROAD,Lehigh,NORTHAMPTON,18067,,,,40.6998,-75.4874,,,,,,,,,,,,,,,
,,32,TAMAQUA TRANSF & RECYCLING CO,239408,<Plastic & Other>,,244 E BROAD ST,Tamaqua,TAMAQUA,18252-2057,,,,40.7983,-75.9735,,,,,,,,,,,,,,,
,,33,BEACH LAKE TRANSF STA,250644,<Plastic & Other>,,ROSENCRANSE RD,Berlin,BEACH LAKE,18405,,,,41.6034,-75.1165,,,,,,,,,,,,,,,
,,34,BERKS TRANSFER INC,551876,<Plastic & Other>,,1420 CLARION ST,Ontelaunee,READING,19601,,,,40.3466,-75.9351,,,,,,,,,,,,,,,
,,35,BERKYS TRANSF & SITE CONTAINER SVC,293270,<Plastic & Other>,,15 BREEZY PARK DR,Ruscombmanor,FLEETWOOD,19522,,,,40.4473,-75.8185,,,,,,,,,,,,,,,
,,36,CLIFFORD HILL SANITATION SVC,243903,<Plastic & Other>,,780 NOBLE ST,Maxatawny,KUTZTOWN,19530-9801,,,,40.5214,-75.7774,,,,,,,,,,,,,,,
,,37,BLAIR COUNTY RESOURCE RECOVERY FACILITY INC,513857,<Plastic & Other>,,RR 1 BOX 938 A,Logan,ALTOONA,16601,,,,40.5209,-78.4089,,,,,,,,,,,,,,,
,,38,SOUTHERN ALLEGHENIES DISPOSAL SVC.,292043,<Plastic & Other>,,E 6 AVE RD,Logan,ALTOONA,16601,,,,40.5209,-78.4089,,,,,,,,,,,,,,,
,,39,DILLER TRANSFER STATION,290480,<Plastic & Other>,,6820 WERTZVILLE RD,Hampden,ENOLA,17025-1032,,,,40.2922,-76.9432,,,,,,,,,,,,,,,
,,40,WASTE MGMT. OF PA INC.TRANSFER STA.,469455,<Plastic & Other>,,4300 INDUSTRIAL PARK RD,Hampden,CAMP HILL,17011-5717,,,,40.2352,-76.9291,,,,,,,,,,,,,,,
,,41,REPUBLIC SERVICES HIGHSPIRE TRANSFER STATION,725814,<Plastic & Other>,,205 INDUSTRIAL ROAD,Highspire,HIGHSPIRE,17034,,,,40.2083,-76.7853,,,,,,,,,,,,,,,
,,42,WASHINGTON TOWNSHIP TRANSFER STATION,291979,<Plastic & Other>,,13013 WELTY RD,Washington,WAYNESBORO,17268,,,,39.7635,-77.5674,,,,,,,,,,,,,,,
,,43,PARKS TRANSFER STATION,560560,<Plastic & Other>,,PO BOX 218,Shirley,MOUNT UNION,17066,,,,40.3901,-77.8637,,,,,,,,,,,,,,,
,,44,CHESAPEAKE WASTE SOLUTIONS INC TRANSFER FACILITY,739433,<Plastic & Other>,,190 SHELLYLAND RD,Rapho,MANHEIM,17545,,,,40.1702,-76.4168,,,,,,,,,,,,,,,
,,45,LCSWMA TRANSF STA,255066,<Plastic & Other>,,PO BOX 4742,Manheim,LANCASTER,17604-4742,,,,40.0651,-76.3356,,,,,,,,,,,,,,,
,,46,NOLTS SVC CTR,649527,<Plastic & Other>,,728 RETTEW MILL RD,Ephrata,LITITZ,17543,,,,40.1846,-76.3015,,,,,,,,,,,,,,,
,,47,MIFFLIN CNTY SWA BARNER TRANSFER STATION,541743,<Plastic & Other>,,US RTE 522 NORTH,Derry,LEWISTOWN,17044-0390,,,,40.5994,-77.5756,,,,,,,,,,,,,,,
,,48,HANOVER AREA TRANSFER STATION,293285,<Plastic & Other>,,23 BARNHARDT DRIVE,Penn,HANOVER,17331,,,,39.7943,-76.9812,,,,,,,,,,,,,,,
,,49,DALE SUMMIT TRANSF STA,273893,<Plastic & Other>,,253 TRANSFER RD.,College,BELLEFONTE,16823-9801,,,,40.8978,-77.7732,,,,,,,,,,,,,,,
,,50,MILLVILLE TRANSFER STATION,495062,<Plastic & Other>,,RR 1 BOX 208,Madison,MILLVILLE,17846-9762,,,,41.1261,-76.5208,,,,,,,,,,,,,,,
,,51,LYCOMING CNTY TRANSF STA,239903,<Plastic & Other>,,1475 W 3RD ST,Williamsport,WILLIAMSPORT,17701-6536,,,,41.2412,-77.0011,,,,,,,,,,,,,,,
,,52,COAL TWP TRANSF STA,246890,<Plastic & Other>,,RR3 BOX 4,Coal,COAL TOWNSHIP,17866,,,,40.7917,-76.5519,,,,,,,,,,,,,,,
,,53,PA WASTE TRANSFER STA,742164,<Plastic & Other>,,RR 3 BOX 1,Coal,COAL TOWNSHIP,17866,,,,40.7917,-76.5519,,,,,,,,,,,,,,,
,,54,SUNBURY TRANSF STA,6304,<Plastic & Other>,,FAWN LN,Sunbury,SUNBURY,17801-3413,,,,40.8551,-76.7776,,,,,,,,,,,,,,,
,,55,POTTER CNTY TRANSF STA,244069,<Plastic & Other>,,2504 SR 49 WEST,Ulysses,ULYSSES,16948-0234,,,,41.8459,-77.7126,,,,,,,,,,,,,,,
,,56,TIADAGHTON AREA TS,240424,<Plastic & Other>,,200 TIOGA ST,Delmar,WELLSBORO,16901-0162,,,,41.7373,-77.308,,,,,,,,,,,,,,,
,,57,TIOGA CNTY TRANSF STA,240366,<Plastic & Other>,,PO BOX 34,Hamilton,BLOSSBURG,16912-0034,,,,41.6698,-77.0797,,,,,,,,,,,,,,,
,,58,ABC EZ MOVING CO INC,567218,<Plastic & Other>,,1000 ISLAND AVE,McKees Rocks,MCKEES ROCKS,15136-2563,,,,40.4717,-80.0876,,,,,,,,,,,,,,,
,,59,BOYD ROLL OFF SVC INC,567218,<Plastic & Other>,,1200 MCKEE ST,Stowe,MCKEES ROCKS,15136-2570,,,,40.4717,-80.0876,,,,,,,,,,,,,,,
,,60,GENESIS AUTOCLAVE MWO,493252,<Plastic & Other>,,"INDUSTRIAL CTR OF MCKEESPORT, PANEL 3-1",McKeesport,MCKEESPORT,15132,,,,40.3478,-79.8642,,,,,,,,,,,,,,,
,,61,MICHAEL BROS HAULING INC,743947,<Plastic & Other>,,5331 MCANULTY RD,Baldwin,PITTSBURGH,15236-2532,,,,40.3351,-79.9832,,,,,,,,,,,,,,,
,,62,PENN WASTE SYS INC,570546,<Plastic & Other>,,149 NICHOL AVE,Stowe,STOWE TOWNSHIP,15136,,,,40.4717,-80.0876,,,,,,,,,,,,,,,
,,63,AMBRIDGE TRANSFER STATION (FRMLY STEEL VALLEY REC CTR),243289,<Plastic & Other>,,E 22ND ST & OAK ALY,Ambridge,AMBRIDGE,15003,,,,40.6005,-80.2105,,,,,,,,,,,,,,,
,,64,VALLEY WASTE SVC INC,696104,<Plastic & Other>,,WALLACE RUN RD,Chippewa,BEAVER FALLS,15010,,,,40.7687,-80.3592,,,,,,,,,,,,,,,
,,65,WEAVERTOWN TRANSFER STA MWO,68,<Plastic & Other>,,3866 MILLERS RUN RD,Canonsburg,MCDONALD,15057-2858,,,,40.3697,-80.2562,,,,,,,,,,,,,,,
,,66,LATROBE TRANSFER MWO,256640,<Plastic & Other>,,MISSION RD,Latrobe,LATROBE,15650,,,,40.2926,-79.4103,,,,,,,,,,,,,,,
,,67,SENECA LANDFILL TRANSFER STA,4207,<Plastic & Other>,,421 HARTMANN ROAD,Jackson,EVANS CITY,16033,,,,40.7808,-80.0592,,,,,,,,,,,,,,,
,,68,CLARION CNTY TRANSF STA,692323,<Plastic & Other>,,18380 PAINT BLVD,Paint,SHIPPENVILLE,16254,,,,41.2475,-79.4332,,,,,,,,,,,,,,,
,,69,MEADVILLE REDI MIX TRANSF STA,675346,<Plastic & Other>,,19824 COCHRANTON RD,West Mead,MEADVILLE,16335,,,,41.6338,-80.1488,,,,,,,,,,,,,,,
,,70,GREATER ERIE TRANSFER & RECYCLING,245156,<Plastic & Other>,,1154 W 16TH ST,Erie,ERIE,16502-1501,,,,42.1133,-80.0976,,,,,,,,,,,,,,,
,,71,TRI CNTY TRANSF STA,491138,<Plastic & Other>,,156 LDFL RD,Pine,GROVE CITY,16214,,,,41.2123,-79.3773,,,,,,,,,,,,,,,
,,72,WASTE MGMT OF GREENVILLE,240787,<Plastic & Other>,,88 OHL ST PO BOX 609,Greenville,GREENVILLE,16125-0609,,,,41.4057,-80.3739,,,,,,,,,,,,,,,
,,73,WARREN CNTY TRANSFER STATION,140,<Plastic & Other>,,32870 ROUTE 6,Pittsfield,PITTSFIELD,16340-9801,,,,41.8366,-79.4196,,,,,,,,,,,,,,,
5,New Jersey,1,Atlantic County Utilities Authority,143393,<Plastic & Other>,(609) 272-6950,Delilah Rd.,,Egg Harbor Twp.,08234,,,,39.3741,-74.6118,,,,,,,,,,,,,,,
,,2,"Miele Sanitation Co., Inc.",131858,<Plastic & Other>,(201) 768-5407,60 Railroad Ave.,,Closter,07624,,,,40.9721,-73.959,,,,,,,,,,,,,,,
,,3,WMNJI (Fairview),131871,<Plastic & Other>,(855) 389-8047,61 Broad Avenue,,Fairview,07022,,,,40.817,-74,,,,,,,,,,,,,,,
,,4,"I.W.S. Transfer System of NJ, Inc.",131873,<Plastic & Other>,(973) 340-0431,19-35 Atlantic St.,,Garfield,07026,,,,40.8789,-74.1081,,,,,,,,,,,,,,,
,,5,"National Transfer, Inc.",131883,<Plastic & Other>,(973) 778-4764,445 N Main St.,,Lodi,07644,,,,40.8764,-74.0838,,,,,,,,,,,,,,,
,,6,"RSNJ, LLC-Mt. Laurel",133508,<Plastic & Other>,(856) 234-4000,Springdale & Church Roads,,Mt. Laurel,08054,,,,39.9478,-74.9036,,,,,,,,,,,,,,,
,,7,Cape May Co. MUA (Middle Twp.),133526,<Plastic & Other>,(609) 465-9026,Shunpike Road,,Cape May Ct. House,08210,,,,39.1378,-74.7806,,,,,,,,,,,,,,,
,,8,"Advanced Enterprises Recycling, Inc.",213296,<Plastic & Other>,(973) 344-5067,540 Doremus Ave.,,Newark,07105,,,,40.7271,-74.1563,,,,,,,,,,,,,,,
,,9,"Advanced Enterprises Recycling, Inc. (Intermodal Containers ONLY)",238466,<Plastic & Other>,(973) 344-5067,540 Doremus  Ave.,,Newark,07105,,,,40.7271,-74.1563,,,,,,,,,,,,,,,
,,10,Evergreen Recycling Solutions,501232,<Plastic & Other>,(973) 242-3030,110 Evergreen Ave.,,Newark,07114-1125,,,,40.7082,-74.1891,,,,,,,,,,,,,,,
,,11,EPIC (Intermodal Containers ONLY),132144,<Plastic & Other>,(973) 601-9212,Brills Yard/Wilson Ave.,,Newark,07105,,,,40.7271,-74.1563,,,,,,,,,,,,,,,
,,12,"Lemcor, Inc.",132133,<Plastic & Other>,(973) 642-1212,170 Frelinghuysen Ave.,,Newark,07114,,,,40.7082,-74.1891,,,,,,,,,,,,,,,
,,13,IWS Transfer Systems of NJ.,195492,<Plastic & Other>,(201) 830-3269,375 Routes 1 & 9 South,,Jersey City,07306,,,,40.7321,-74.066,,,,,,,,,,,,,,,
,,14,Lincoln Recycling,132246,<Plastic & Other>,(201) 974-2962,4711 Dell Ave.,,No. Bergen,07047,,,,40.7939,-74.0258,,,,,,,,,,,,,,,
,,15,Allegro Sanitation Corp.,132250,<Plastic & Other>,(201) 863-1063,278 Secaucus Road,,Secaucus,07094,,,,40.791,-74.0634,,,,,,,,,,,,,,,
,,16,Hunterdon County Util. Authority,132254,<Plastic & Other>,(908) 788-1351,Petticoat Lane,,Flemington,08822,,,,40.518,-74.8453,,,,,,,,,,,,,,,
,,17,Mercer County Improv. Auth.,133577,<Plastic & Other>,(609) 278-8100,N. Olden Ave.,,Trenton,08650,,,,40.2805,-74.712,,,,,,,,,,,,,,,
,,18,Mercer Group Int.,197093,<Plastic & Other>,(609) 393-4834,4 Beakes St.,,Trenton,08638,,,,40.251,-74.7627,,,,,,,,,,,,,,,
,,19,"RSNJ, LLC-Middlesex",132341,<Plastic & Other>,(732) 469-3777,92 Bakeland Ave.,,Middlesex,08846,,,,40.5759,-74.5008,,,,,,,,,,,,,,,
,,20,"RSNJ,LLC-New Brunswick",132390,<Plastic & Other>,(732) 545-8988,5 Industrial Drive,,New Brunswick,08906,,,,40.4862,-74.4518,,,,,,,,,,,,,,,
,,21,Perth Amboy City Transfer,133598,<Plastic & Other>,(732) 826-2010,599 Feyette St.,,Perth Amboy,08861,,,,40.5176,-74.2754,,,,,,,,,,,,,,,
,,22,"RSNJ, LLC-So. Plainfield",132382,<Plastic & Other>,(908) 561-8380,11 Harmich Rd.,,So. Plainfield,07080,,,,40.5839,-74.4147,,,,,,,,,,,,,,,
,,23,Sakoutis Bros. Disposal Inc.,132384,<Plastic & Other>,(908) 222-8310,2101 Roosevelt Ave.,,So. Plainfield,07727,,,,40.2043,-74.1779,,,,,,,,,,,,,,,
,,24,Freehold Cartage,193704,<Plastic & Other>,(732) 462-1001,825 Hwy 33 East,,Freehold Twp,07728,,,,40.2458,-74.2768,,,,,,,,,,,,,,,
,,25,Monmouth County MRF,133927,<Plastic & Other>,(732) 683-8686,6000 Asbury Ave.,,Tinton Falls,07753,,,,40.2096,-74.0714,,,,,,,,,,,,,,,
,,26,Morris County MUA (Mt. Olive),133624,<Plastic & Other>,(973) 285-8390,Goldmine Road,,Mt. Olive,07945,,,,40.7789,-74.6,,,,,,,,,,,,,,,
,,27,Morris County MUA (Par-Troy),132507,<Plastic & Other>,(973) 285-8390,Edwards Rd.,,Parsippany,07945,,,,40.7789,-74.6,,,,,,,,,,,,,,,
,,28,Covanta Sustainable Solutions (Fulton St.),133649,<Plastic & Other>,(973) 278-3636,20-32 Fulton St.,,Paterson,07510,,,,40.9168,-74.1718,,,,,,,,,,,,,,,
,,29,Covanta Sustainable Solutions (River St.),132581,<Plastic & Other>,(973) 278-3636,178 River St.,,Paterson,08104,,,,39.9186,-75.1078,,,,,,,,,,,,,,,
,,30,"Gaeta Recycling Co., Inc.",132582,<Plastic & Other>,(973) 278-6625,278 W Railway Ave.,,Paterson,07503,,,,40.897,-74.1573,,,,,,,,,,,,,,,
,,31,"Bridgewater Resources, Inc.",132640,<Plastic & Other>,(732) 271-2800,15 Polhemus Lane,,Bridgewater,08807,,,,40.5904,-74.6267,,,,,,,,,,,,,,,
,,32,Bridgewater Res. Inc. (Intermodal Containers ONLY),135683,<Plastic & Other>,(732) 271-2800,15 Polhemus Lane,,Bridgewater,08807,,,,40.5904,-74.6267,,,,,,,,,,,,,,,
,,33,WMNJI-Julia St.,132698,<Plastic & Other>,(855)389-8047,864 Julia St.,,Elizabeth,08610,,,,40.2016,-74.705,,,,,,,,,,,,,,,
,,34,Plainfield City,132718,<Plastic & Other>,(908) 226-2518,Rock Ave.,,Plainfield,07060,,,,40.6152,-74.415,,,,,,,,,,,,,,,
,,35,Summit City Transfer,132728,<Plastic & Other>,(908) 273-6404,New Providence Ave.,,Summit,07901,,,,40.7149,-74.3642,,,,,,,,,,,,,,,
,,36,WMNJI - So. Front St.,731349,<Plastic & Other>,(855) 389-8047,650 Front Street,,Elizabeth,07202,,,,40.6565,-74.2215,,,,,,,,,,,,,,,
6,Massachusetts,1,ACTON HIWAY DEPT,173143,<Plastic & Other>,(978)929-7740,14 FOREST RD,ACTON,ACTON,1720,Municipal,,,42.4751,-71.4483,,,,,,,,,,,,,,,
,,2,TOWN OF ADAMS,517187,<Plastic & Other>,(413)743-8300,65 PARK ST,ADAMS,ADAMS,1220,Municipal,,,42.6223,-73.1172,,,,,,,,,,,,,,,
,,3,COVANTA SPRINGFIELD LLC,374839,<Plastic & Other>,(413)785-5120 613,188 M ST,AGAWAM,AGAWAM,1001,Private,,,42.0702,-72.6227,,,,,,,,,,,,,,,
,,4,TOWN OF ALFORD,173178,<Plastic & Other>,(413)528-6327,5 MAIN STREET,ALFORD,ALFORD,1230,Municipal,,,42.1959,-73.3607,,,,,,,,,,,,,,,
,,5,AMHERST DPW,366374,<Plastic & Other>,(413)259-3050,586 SOUTH PLEASANT ST,AMHERST,AMHERST,01002-2542,Municipal,,,42.3671,-72.4646,,,,,,,,,,,,,,,
,,6,UMASS OFFICE OF WASTE MGMNT,339439,<Plastic & Other>,(413)577-3013,151 TILLSON FARM RD,AMHERST,AMHERST,1003,State,,,42.3919,-72.5248,,,,,,,,,,,,,,,
,,7,MARTHAS VINEYARD REFUSE DIST,440692,<Plastic & Other>,(508)627-4501,750 WEST TISBURY RD,AQUINNAH,EDGARTOWN,2539,Municipal,,,41.3889,-70.5339,,,,,,,,,,,,,,,
,,8,TOWN OF ASHBURNHAM,440302,<Plastic & Other>,(978)827-4120,17 CENTRAL ST,ASHBURNHAM,ASHBURNHAM,1430,Municipal,,,42.6496,-71.9267,,,,,,,,,,,,,,,
,,9,TOWN OF ASHBY,357367,<Plastic & Other>,(978)386-2501,895 MAIN ST,ASHBY,ASHBY,01431-2322,Municipal,,,42.6745,-71.8174,,,,,,,,,,,,,,,
,,10,HILLTOWN RESOURCE MGMT CO-OP,173174,<Plastic & Other>,(413)268-3845,PO BOX 630,ASHFIELD,WILLIAMSBURG,1096,District,,,42.4085,-72.778,,,,,,,,,,,,,,,
,,11,TOWN OF ATHOL,430513,<Plastic & Other>,(774)345-0793,584 MAIN ST,ATHOL,ATHOL,1331,Municipal,,,42.5959,-72.2267,,,,,,,,,,,,,,,
,,12,CASELLA WASTE MGMT OF MA INC,330392,<Plastic & Other>,(207)653-4421,"110 MAIN STREET, SUITE 1308",AUBURN,SACO,4072,Private,,,43.5209,-70.4546,,,,,,,,,,,,,,,
,,13,AYER DPW,173144,<Plastic & Other>,(978)772-8240,25 BROOK ST,AYER,AYER,1432,Municipal,,,42.5591,-71.5788,,,,,,,,,,,,,,,
,,14,DEVENS RECYCLING CENTER LLC,429157,<Plastic & Other>,(978)772-6500 301,45 INDEPENDENCE DR,AYER,DEVENS,1434,Private,,,42.5385,-71.6115,,,,,,,,,,,,,,,
,,15,ST. GERMAIN COLLINS,264949,<Plastic & Other>,(207)591-7000 22,846 MAIN ST.,AYER,WESTBROOK,4092,Private,,,43.6843,-70.358,,,,,,,,,,,,,,,
,,16,TOWN OF BARNSTABLE,173196,<Plastic & Other>,(508)862-4090,367 MAIN ST,BARNSTABLE,HYANNIS,2601,Municipal,,,41.6601,-70.2967,,,,,,,,,,,,,,,
,,17,RESOURCE CONTROL INC (WMI),291003,<Plastic & Other>,(978)355-6821,99 BARRE DEPOT RD,BARRE,BARRE,1005,Private,,,42.4097,-72.1084,,,,,,,,,,,,,,,
,,18,BECKET HIGHWAY DEPT,173248,<Plastic & Other>,(413)623-8988,47 LYMAN ST,BECKET,BECKET,1223,Municipal,,,42.3594,-73.1203,,,,,,,,,,,,,,,
,,19,TOWN OF BELCHERTOWN,280307,<Plastic & Other>,(413)323-0415,"2 JABISH ST, PO BOX 306",BELCHERTOWN,BELCHERTOWN,1007,Municipal,,,42.2751,-72.411,,,,,,,,,,,,,,,
,,20,BERKLEY RECYCLING & SW COMMITTEE,273906,<Plastic & Other>,(508)824-8380,3R NORTH MAIN ST,BERKLEY,BERKLEY,2779,Municipal,,,41.8353,-71.0765,,,,,,,,,,,,,,,
,,21,TOWN OF BERLIN,173145,<Plastic & Other>,(978)838-0214,23 LINDEN ST,BERLIN,BERLIN,1503,Municipal,,,42.3844,-71.6356,,,,,,,,,,,,,,,
,,22,FRANKLIN COUNTY SW MGMT DIST,324250,<Plastic & Other>,(413)772-2438,50 MILES ST,BERNARDSTON,GREENFIELD,1301,District,,,42.6013,-72.6236,,,,,,,,,,,,,,,
,,23,ANDREJOIS HYGIENE INC,391909,<Plastic & Other>,(978)528-5731,13 LINNELL CIR,BILLERICA,BILLERICA,1821,Private,,,42.5519,-71.2518,,,,,,,,,,,,,,,
,,24,BLANDFORD BOH,258597,<Plastic & Other>,(413)262-4295,1020 MAIN ST,BLANDFORD,BLANDFORD,1008,Municipal,,,42.1829,-72.9361,,,,,,,,,,,,,,,
,,25,BOLTON DPW,374003,<Plastic & Other>,(978)779-6402,12 FORBUSH MILL RD,BOLTON,BOLTON,1740,Municipal,,,42.4365,-71.6076,,,,,,,,,,,,,,,
,,26,ALLIED WASTE SYSTEMS INC,329121,<Plastic & Other>,(508)786-7017,320A CHARGER ST,BOSTON,REVERE,2151,Private,,,42.4138,-71.0052,,,,,,,,,,,,,,,
,,27,RE-ENERGY ROXBURY LLC,173138,<Plastic & Other>,(603)894-9800,101 GERARD ST,BOSTON,ROXBURY,2119,Private,,,42.3251,-71.0953,,,,,,,,,,,,,,,
,,28,BOURNE ISWM DEPT,362723,<Plastic & Other>,(508)759-0600 4240,24 PERRY AVE,BOURNE,BUZZARDS BAY,2532,Municipal,,,41.7455,-70.5905,,,,,,,,,,,,,,,
,,29,TOWN OF BOXBOROUGH,173211,<Plastic & Other>,(978)263-1600,29 MIDDLE RD,BOXBOROUGH,BOXBOROUGH,1719,Municipal,,,42.4884,-71.5178,,,,,,,,,,,,,,,
,,30,COVANTA OF SEMASS LP,173139,<Plastic & Other>,(508)291-4436,141 CRANBERRY HWY,BRAINTREE,WEST WAREHAM,2576,Private,,,41.7796,-70.7642,,,,,,,,,,,,,,,
,,31,BREWSTER DPW,363655,<Plastic & Other>,(508)896-3212,201 RUN HILL RD,BREWSTER,BREWSTER,2631,Municipal,,,41.7492,-70.0699,,,,,,,,,,,,,,,
,,32,CAPE SAND & RECYLCING LLC,298388,<Plastic & Other>,(508)294-1008,CAPE SAND WAY,BREWSTER,BREWSTER,2631,Private,,,41.7492,-70.0699,,,,,,,,,,,,,,,
,,33,BRIDGEWATER BOH,274580,<Plastic & Other>,(508)697-0903,"66 CENTRAL SQ, ACADEMY BLD",BRIDGEWATER,BRIDGEWATER,2324,Municipal,,,41.9773,-70.9723,,,,,,,,,,,,,,,
,,34,CHAMPION CITY RECOVERY LLC,344386,<Plastic & Other>,(508)941-6700,138 WILDER STREET EXTENSION,BROCKTON,BROCKTON,2301,Private,,,42.0794,-71.04,,,,,,,,,,,,,,,
,,35,TROJAN RECYCLING INC,279564,<Plastic & Other>,(508)588-2332,71 FOREST ST,BROCKTON,BROCKTON,2302,Private,,,42.0847,-71.0002,,,,,,,,,,,,,,,
,,36,TOWN OF BROOKFIELD,358551,<Plastic & Other>,(508)867-5500,6 CENTRAL ST,BROOKFIELD,BROOKFIELD,1506,Municipal,,,42.1991,-72.0989,,,,,,,,,,,,,,,
,,37,TOWN OF BROOKLINE,173140,<Plastic & Other>,(617)730-2166,333 WASHINGTON ST,BROOKLINE,BROOKLINE,2445,Municipal,,,42.3259,-71.1341,,,,,,,,,,,,,,,
,,38,FRANKLIN COUNTY SW MGMT DIST,337488,<Plastic & Other>,(413)772-2438,50 MILES ST,BUCKLAND,GREENFIELD,1301,District,,,42.6013,-72.6236,,,,,,,,,,,,,,,
,,39,,561572,<Plastic & Other>,,,CANTON,,,,,,0,0,,,,,,,,,,,,,,,
,,40,CARLISLE DPW,172395,<Plastic & Other>,(978)369-6156,"LOWELL ST, PO BOX 149",CARLISLE,CARLISLE,1741,Municipal,,,42.5286,-71.3519,,,,,,,,,,,,,,,
,,41,FRANKLIN COUNTY SW MGMT DIST,388659,<Plastic & Other>,(413)772-2438,50 MILES ST,CHARLEMONT,GREENFIELD,1301,District,,,42.6013,-72.6236,,,,,,,,,,,,,,,
,,42,FRANKLIN COUNTY SW MGMT DIST,416908,<Plastic & Other>,(413)772-2438,50 MILES ST,CHARLEMONT,GREENFIELD,1301,District,,,42.6013,-72.6236,,,,,,,,,,,,,,,
,,43,CHATHAM DPW,320724,<Plastic & Other>,(508)945-5155,221 CROWELL RD,CHATHAM,CHATHAM,2633,Municipal,,,41.6889,-69.9722,,,,,,,,,,,,,,,
,,44,TW NICKERSON INC,361836,<Plastic & Other>,(508)432-1655 1,160 MILL HILL RD,CHATHAM,SOUTH CHATHAM,2659,Private,,,41.6801,-70.0241,,,,,,,,,,,,,,,
,,45,TOWN OF CHESHIRE,274416,<Plastic & Other>,(413)743-1690,80 CHURCH ST,CHESHIRE,CHESHIRE,1225,Municipal,,,42.5611,-73.158,,,,,,,,,,,,,,,
,,46,TOWN OF CHESTER,173175,<Plastic & Other>,(413)354-7781,15 MIDDLEFIELD ST,CHESTER,CHESTER,1011,Municipal,,,42.2794,-72.9888,,,,,,,,,,,,,,,
,,47,HILLTOWN RESOURCE MGMT CO-OP,172414,<Plastic & Other>,(413)268-3845,PO BOX 630,CHESTERFIELD,WILLIAMSBURG,1096,District,,,42.4085,-72.778,,,,,,,,,,,,,,,
,,48,MARTHAS VINEYARD REFUSE DIST,387529,<Plastic & Other>,(508)627-4501,750 WEST TISBURY RD,CHILMARK,EDGARTOWN,2539,Municipal,,,41.3889,-70.5339,,,,,,,,,,,,,,,
,,49,TOWN OF COHASSET,173261,<Plastic & Other>,(781)383-0273,91 CEDAR ST,COHASSET,COHASSET,2025,Municipal,,,42.2395,-70.8128,,,,,,,,,,,,,,,
,,50,FRANKLIN COUNTY SW MGMT DIST,307443,<Plastic & Other>,(413)772-2438,50 MILES ST,COLRAIN,GREENFIELD,1301,District,,,42.6013,-72.6236,,,,,,,,,,,,,,,
,,51,FRANKLIN COUNTY SW MGMT DIST,174123,<Plastic & Other>,(413)772-2438,50 MILES ST,CONWAY,GREENFIELD,1301,District,,,42.6013,-72.6236,,,,,,,,,,,,,,,
,,52,HILLTOWN RESOURCE MGMT CO-OP,285512,<Plastic & Other>,(413)268-3845,PO BOX 630,CUMMINGTON,WILLIAMSBURG,1096,District,,,42.4085,-72.778,,,,,,,,,,,,,,,
,,53,TOWN OF DALTON,175866,<Plastic & Other>,(413)684-6111,462 MAIN ST,DALTON,DALTON,1226,Municipal,,,42.475,-73.1603,,,,,,,,,,,,,,,
,,54,COVANTA ENERGY,173130,<Plastic & Other>,(978)241-3015,100 RECOVERY WAY,DANVERS,HAVERHILL,1835,Private,,,42.7528,-71.0843,,,,,,,,,,,,,,,
,,55,DARTMOUTH DPW,363702,<Plastic & Other>,(508)999-0740,759 RUSSELLS MILLS RD,DARTMOUTH,DARTMOUTH,2748,Municipal,,,41.5665,-70.9843,,,,,,,,,,,,,,,
,,56,RECYCLING SOLUTIONS LLC,210300,<Plastic & Other>,(781)844-1477,5 INCINERATOR RD,DEDHAM,DEDHAM,2026,Private,,,42.2437,-71.1637,,,,,,,,,,,,,,,
,,57,FRANKLIN COUNTY SW MGMT DIST,330171,<Plastic & Other>,(413)772-2438,50 MILES ST,DEERFIELD,GREENFIELD,1301,District,,,42.6013,-72.6236,,,,,,,,,,,,,,,
,,58,TOWN OF DENNIS DPW,319430,<Plastic & Other>,(508)760-6232,120 THEOPHILUS F. SMITH RD,DENNIS,SOUTH DENNIS,2660,Municipal,,,41.7097,-70.1585,,,,,,,,,,,,,,,
,,59,ROBERT CHILDS INC,324535,<Plastic & Other>,(508)398-2556 25,"169 GREAT WESTERN RD, BOX 1431",DENNIS,SOUTH DENNIS,2660,Private,,,41.7097,-70.1585,,,,,,,,,,,,,,,
,,60,S&J EXCO INC,173241,<Plastic & Other>,(508)398-4000,200 GREAT WESTERN RD,DENNIS,SOUTH DENNIS,2660,Private,,,41.7097,-70.1585,,,,,,,,,,,,,,,
,,61,DIGHTON HIGHWAY DEPT,173183,<Plastic & Other>,(508)669-5461,979 SOMERSET AVE,DIGHTON,DIGHTON,2715,Municipal,,,41.8125,-71.1427,,,,,,,,,,,,,,,
,,62,TOWN OF DOUGLAS,172462,<Plastic & Other>,(508)476-4000 352,29 DEPOT ST,DOUGLAS,DOUGLAS,1516,Municipal,,,42.0528,-71.7509,,,,,,,,,,,,,,,
,,63,DOVER HIGHWAY DEPT,39966,<Plastic & Other>,(508)785-0058 121,"PO BOX 250, 5 SPRINGDALE AVE",DOVER,DOVER,2030,Municipal,,,42.2362,-71.2854,,,,,,,,,,,,,,,
,,64,TOWN OF DUDLEY,356818,<Plastic & Other>,(508)949-8020,71 WEST MAIN ST,DUDLEY,DUDLEY,1571,Municipal,,,42.0489,-71.8932,,,,,,,,,,,,,,,
,,65,DUNSTABLE BOARD OF HEALTH,440689,<Plastic & Other>,(978)649-4514 229,PO BOX 268,DUNSTABLE,DUNSTABLE,1827,Municipal,,,42.6739,-71.4952,,,,,,,,,,,,,,,
,,66,TOWN OF DUXBURY,172473,<Plastic & Other>,(781)934-1100,878 TREMONT STREET,DUXBURY,DUXBURY,2332,Municipal,,,42.0399,-70.7163,,,,,,,,,,,,,,,
,,67,EAST LONGMEADOW DPW,173188,<Plastic & Other>,(413)525-5400 1203,60 CENTER SQUARE,EAST LONGMEADOW,EAST LONGMEADOW,1028,Municipal,,,42.0672,-72.5056,,,,,,,,,,,,,,,
,,68,EASTHAM DPW,173274,<Plastic & Other>,(508)240-5973,555 OLD ORCHARD RD,EASTHAM,EASTHAM,2642,Municipal,,,41.8408,-69.9849,,,,,,,,,,,,,,,
,,69,MARTHAS VINEYARD REFUSE DIST,285171,<Plastic & Other>,(508)627-4501,750 WEST TISBURY RD,EDGARTOWN,EDGARTOWN,2539,Municipal,,,41.3889,-70.5339,,,,,,,,,,,,,,,
,,70,TOWN OF EGREMONT,306909,<Plastic & Other>,(413)528-0182 10,PO BOX 368,EGREMONT,SOUTH EGREMONT,1258,Municipal,,,42.1012,-73.4566,,,,,,,,,,,,,,,
,,71,TOWN OF ESSEX,173155,<Plastic & Other>,(978)768-6262,44 CENTENNIAL GROVE RD,ESSEX,ESSEX,1929,Municipal,,,42.6286,-70.7828,,,,,,,,,,,,,,,
,,72,WOOD WASTE OF BOSTON,328984,<Plastic & Other>,(617)387-3700,85-87 BOSTON ST,EVERETT,EVERETT,02149-4726,Private,,,42.4112,-71.0514,,,,,,,,,,,,,,,
,,73,,547901,<Plastic & Other>,,,FALL RIVER,,,,,,0,0,,,,,,,,,,,,,,,
,,74,BLACKSMITH SHOP FARMS INC,186654,<Plastic & Other>,(508)548-1830,716 BLACKSMITH SHOP RD,FALMOUTH,FALMOUTH,2536,Private,,,41.5968,-70.5671,,,,,,,,,,,,,,,
,,75,FALMOUTH DPW,318312,<Plastic & Other>,(508)457-2530,416 GIFFORD ST,FALMOUTH,FALMOUTH,2540,Municipal,,,41.5648,-70.6217,,,,,,,,,,,,,,,
,,76,AKS RECYCLING INC,366279,<Plastic & Other>,(508)726-1500,PO BOX 854,FITCHBURG,LONDONDERRY,3053,Private,,,42.8656,-71.3772,,,,,,,,,,,,,,,
,,77,HARVEY RECYCLING OF FITCHBURG,427718,<Plastic & Other>,(800)321-3002,50 ARBOR WAY,FITCHBURG,FITCHBURG,1420,Private,,,42.5796,-71.8031,,,,,,,,,,,,,,,
,,78,TOWN OF FLORIDA,280303,<Plastic & Other>,(413)662-2448,379 MOHAWK TRAIL,FLORIDA,DRURY,1343,Municipal,,,42.6427,-72.9862,,,,,,,,,,,,,,,
,,79,TOWN OF FRANKLIN,172529,<Plastic & Other>,(508)553-5529,257 FISHER ST,FRANKLIN,FRANKLIN,2038,Municipal,,,42.0935,-71.4058,,,,,,,,,,,,,,,
,,80,TOWN OF FREETOWN,318488,<Plastic & Other>,(508)644-2202,"3 NORTH MAIN ST, BOX 438",FREETOWN,ASSONET,2702,Municipal,,,41.7975,-71.0607,,,,,,,,,,,,,,,
,,81,CITY OF GARDNER,418399,<Plastic & Other>,(978)630-4013 8043,95 PLEASANT ST,GARDNER,GARDNER,1440,Municipal,,,42.574,-71.9898,,,,,,,,,,,,,,,
,,82,MELLO DISPOSAL CORPORATION,173156,<Plastic & Other>,(978)352-8581,"95 TENNEY ST, PO BOX 348",GEORGETOWN,GEORGETOWN,1833,Private,,,42.7281,-70.9822,,,,,,,,,,,,,,,
,,83,HILLTOWN RESOURCE MGMT CO-OP,173182,<Plastic & Other>,(413)268-3845,PO BOX 630,GOSHEN,WILLIAMSBURG,1096,District,,,42.4085,-72.778,,,,,,,,,,,,,,,
,,84,TOWN OF GOSNOLD,363704,<Plastic & Other>,(508)990-7408,ROAD TO THE LANDING,GOSNOLD,GOSNOLD,2713,Municipal,,,41.4218,-70.9313,,,,,,,,,,,,,,,
,,85,TOWN OF GRANVILLE,173189,<Plastic & Other>,(413)357-8585,"PO BOX 247, 707 MAIN RD",GRANVILLE,GRANVILLE,1034,Municipal,,,42.1127,-72.952,,,,,,,,,,,,,,,
,,86,TOWN OF GREAT BARRINGTON,325062,<Plastic & Other>,(413)528-0867,334 MAIN ST,GREAT BARRINGTON,GREAT BARRINGTON,1230,Municipal,,,42.1959,-73.3607,,,,,,,,,,,,,,,
,,87,TOWN OF GREENFIELD,174772,<Plastic & Other>,(413)772-1528,14 COURT SQUARE,GREENFIELD,GREENFIELD,1301,Municipal,,,42.6013,-72.6236,,,,,,,,,,,,,,,
,,88,GROTON TRANSFER & RECYCLING CENTER,363410,<Plastic & Other>,(978)448-1162,173 MAIN ST,GROTON,GROTON,1450,Municipal,,,42.6124,-71.5584,,,,,,,,,,,,,,,
,,89,SOLID WASTE SOLUTIONS LLC,172560,<Plastic & Other>,(413)498-0099 112,576 PINE MEADOW RD,HADLEY,NORTHFIELD,1360,Private,,,42.6887,-72.451,,,,,,,,,,,,,,,
,,90,TOWN OF HAMPDEN,368177,<Plastic & Other>,(413)566-2152,625 MAIN ST,HAMPDEN,HAMPDEN,1036,Municipal,,,42.0648,-72.4318,,,,,,,,,,,,,,,
,,91,TOWN OF HANCOCK,173203,<Plastic & Other>,(413)738-5225,3650 HANCOCK RD,HANCOCK,HANCOCK,1237,Municipal,,,42.5173,-73.2282,,,,,,,,,,,,,,,
,,92,HANOVER DPW,172572,<Plastic & Other>,(781)826-3189,40 POND ST,HANOVER,HANOVER,2339,Municipal,,,42.1214,-70.857,,,,,,,,,,,,,,,
,,93,TOWN OF HANSON,172573,<Plastic & Other>,(781)293-2131,542 LIBERTY ST,HANSON,HANSON,2341,Municipal,,,42.0616,-70.8651,,,,,,,,,,,,,,,
,,94,HARVARD DPW,173170,<Plastic & Other>,(978)456-4130,47 DEPOT RD,HARVARD,HARVARD,1451,Municipal,,,42.4986,-71.5753,,,,,,,,,,,,,,,
,,95,HARWICH TRANSFER & RECYCLING CENTER,299296,<Plastic & Other>,(508)430-7555,"PO BOX 1543, 273 QUEEN ANNE RD",HARWICH,HARWICH,2645,Municipal,,,41.7008,-70.0579,,,,,,,,,,,,,,,
,,96,ROBERT B OUR COMPANY INC,329066,<Plastic & Other>,(508)432-0530,24 GREAT WESTERN RD(P.O. BOX 1539),HARWICH,HARWICH,2645,Private,,,41.7008,-70.0579,,,,,,,,,,,,,,,
,,97,TOWN OF HATFIELD,285960,<Plastic & Other>,(413)247-0499,59 MAIN ST,HATFIELD,HATFIELD,1038,Municipal,,,42.3844,-72.6167,,,,,,,,,,,,,,,
,,98,NATIONAL WASTE MANAGEMENT INC,390493,<Plastic & Other>,(508)476-1900,362 PUTNAM HILL RD,HAVERHILL,SUTTON,1590,Private,,,42.1266,-71.7552,,,,,,,,,,,,,,,
,,99,STERICYCLE INC,335577,<Plastic & Other>,(401)769-5801 13,369 PARK EAST RD,HAVERHILL,WOONSOCKET,2895,Private,,,41.9846,-71.5194,,,,,,,,,,,,,,,
,,100,FRANKLIN COUNTY SW MGMT DIST,258595,<Plastic & Other>,(413)772-2438,50 MILES ST,HEATH,GREENFIELD,1301,District,,,42.6013,-72.6236,,,,,,,,,,,,,,,
,,101,HINGHAM DPW,319097,<Plastic & Other>,(781)741-1430,25 BARE COVE PARK DR,HINGHAM,HINGHAM,2043,Municipal,,,42.2245,-70.8911,,,,,,,,,,,,,,,
,,102,TOWN OF HINSDALE,173257,<Plastic & Other>,(413)655-2245,39 SOUTH ST,HINSDALE,HINSDALE,1235,Municipal,,,42.4298,-73.0724,,,,,,,,,,,,,,,
,,103,COVANTA 4RECOVERY TRANSFER SYSTEMS LLC,330447,<Plastic & Other>,(508)291-4436,141 CRANBERRY HWY,HOLLISTON,WEST WAREHAM,2576,Private,,,41.7796,-70.7642,,,,,,,,,,,,,,,
,,104,,449795,<Plastic & Other>,,,HOLYOKE,,,,,,0,0,,,,,,,,,,,,,,,
,,105,EL HARVEY & SONS INC,356519,<Plastic & Other>,(508)836-3000,68 HOPKINTON RD,HOPKINTON,WESTBOROUGH,1518,Private,,,42.1228,-72.1178,,,,,,,,,,,,,,,
,,106,BP TRUCKING,280116,<Plastic & Other>,(508)231-1000,47-65 NICKERSON RD,HUDSON,ASHLAND,1721,Private,,,42.2539,-71.4583,,,,,,,,,,,,,,,
,,107,HILLTOWN RESOURCE MGMT CO-OP,173246,<Plastic & Other>,(413)268-3845,PO BOX 630,HUNTINGTON,WILLIAMSBURG,1096,District,,,42.4085,-72.778,,,,,,,,,,,,,,,
,,108,IPSWICH DPW,173147,<Plastic & Other>,(978)356-6612,25 GREEN ST,IPSWICH,IPSWICH,1938,Municipal,,,42.6809,-70.8494,,,,,,,,,,,,,,,
,,109,TOWN OF KINGSTON,363650,<Plastic & Other>,(781)585-0513,32 EVERGREEN ST,KINGSTON,KINGSTON,2364,Municipal,,,41.995,-70.741,,,,,,,,,,,,,,,
,,110,LAKEVILLE DPW,289604,<Plastic & Other>,(508)947-6599,100 KENNETH WELCH DR,LAKEVILLE,LAKEVILLE,2347,Municipal,,,41.8374,-70.9582,,,,,,,,,,,,,,,
,,111,"LENOX VALLEY WTF, LLC",174773,<Plastic & Other>,(413)441-9318,64-68 WILLOW CREEK RD,LENOX,LENOX,1240,Private,,,42.3642,-73.2713,,,,,,,,,,,,,,,
,,112,"WASTE MANAGEMENT OF MA, INC",369009,<Plastic & Other>,(413)275-1513 N/A,26 PATRIOT PL,LEOMINSTER,FOXBOROUGH,2035,Private,,,42.0649,-71.2441,,,,,,,,,,,,,,,
,,113,TOWN OF LEVERETT,358256,<Plastic & Other>,(978)793-2935,"TOWN HALL, MONTAGUE RD",LEVERETT,LEVERETT,1054,Municipal,,,42.4682,-72.4993,,,,,,,,,,,,,,,
,,114,US AIR FORCE,289497,<Plastic & Other>,(781)377-2475,"66 MSG/CEGV, 72 DOW ST, BLDG 1825",LEXINGTON,HANSCOM AFB,1731,Federal,,,42.4567,-71.2795,,,,,,,,,,,,,,,
,,115,TOWN OF LINCOLN,173148,<Plastic & Other>,(781)259-8999,30 LEWIS ST,LINCOLN,LINCOLN,1773,Municipal,,,42.4217,-71.3137,,,,,,,,,,,,,,,
,,116,LITTLETON HIGHWAY DEPT,173206,<Plastic & Other>,(978)540-2670,"PO BOX 1305, 37 SHATTUCK ST",LITTLETON,LITTLETON,1640,Municipal,,,0,0,,,,,,,,,,,,,,,
,,117,TOWN OF LONGMEADOW,380803,<Plastic & Other>,(413)567-3400,20 WILLIAMS ST,LONGMEADOW,LONGMEADOW,1106,Municipal,,,42.0507,-72.5676,,,,,,,,,,,,,,,
,,118,TOWN OF LUDLOW,280591,<Plastic & Other>,(413)583-5625,198 SPORTMENS RD,LUDLOW,LUDLOW,1056,Municipal,,,42.1728,-72.471,,,,,,,,,,,,,,,
,,119,COVANTA ENERGY,360908,<Plastic & Other>,(978)241-3015,100 RECOVERY WAY,LYNN,HAVERHILL,1835,Private,,,42.7528,-71.0843,,,,,,,,,,,,,,,
,,120,MANCHESTER DEPT OF PUBLIC WORKS,316796,<Plastic & Other>,(978)726-3971,10 CENTRAL ST,MANCHESTER,MANCHESTER BY THE SEA,1944,Municipal,,,42.5796,-70.7674,,,,,,,,,,,,,,,
,,121,MARBLEHEAD BOARD OF HEALTH,172690,<Plastic & Other>,(781)631-0212,"7 WIDGER RD, MUNI BLDG",MARBLEHEAD,MARBLEHEAD,1945,Municipal,,,42.4984,-70.8653,,,,,,,,,,,,,,,
,,122,CARVER-MARION-WAREHAM DISTRICT,439067,<Plastic & Other>,(508)748-6554,PO BOX 477,MARION,WEST WAREHAM,2576,District,,,41.7796,-70.7642,,,,,,,,,,,,,,,
,,123,,596382,<Plastic & Other>,,,MARLBOROUGH,,,,,,0,0,,,,,,,,,,,,,,,
,,124,WASTE MANAGEMENT OF MA,173173,<Plastic & Other>,(413)275-1513 NA,26 PATRIOT PL,MARLBOROUGH,FOXBOROUGH,2035,Private,,,42.0649,-71.2441,,,,,,,,,,,,,,,
,,125,WECARE ENVIRONMENTAL LLC,378494,<Plastic & Other>,(508)480-9922,856 BOSTON POST ROAD EAST,MARLBOROUGH,MARLBOROUGH,1752,Private,,,42.3509,-71.5434,,,,,,,,,,,,,,,
,,126,MARSHFIELD DPW,299300,<Plastic & Other>,(781)834-5559,870 MORAINE ST,MARSHFIELD,MARSHFIELD,2050,Municipal,,,42.1062,-70.6993,,,,,,,,,,,,,,,
,,127,TOWN OF MASHPEE,296355,<Plastic & Other>,(508)539-1420,GREAT NECK RD NORTH,MASHPEE,MASHPEE,2649,Municipal,,,41.6181,-70.4854,,,,,,,,,,,,,,,
,,128,MATTAPOISETT BOH,331657,<Plastic & Other>,(508)758-4100 218,"PO BOX 434, 16 MAIN ST",MATTAPOISETT,MATTAPOISETT,2739,Municipal,,,41.6618,-70.8164,,,,,,,,,,,,,,,
,,129,TOWN OF MEDFIELD,173187,<Plastic & Other>,(508)359-8505 600,459 MAIN ST,MEDFIELD,MEDFIELD,2052,Municipal,,,42.1845,-71.3048,,,,,,,,,,,,,,,
,,130,WASTE MANAGEMENT OF MA INC,318665,<Plastic & Other>,(603)330-2164,26 PATRIOT PLACE,MELROSE,FOXBORO,2035,Private,,,42.0649,-71.2441,,,,,,,,,,,,,,,
,,131,CITY OF METHUEN,173278,<Plastic & Other>,(978)983-8545,41 PLEASANT ST,METHUEN,METHUEN,1844,Municipal,,,42.728,-71.181,,,,,,,,,,,,,,,
,,132,WASTE MANAGEMENT OF MA INC,440697,<Plastic & Other>,(508)549-8057,26 PATRIOT PL,MIDDLEBOROUGH,FOXBOROUGH,2035,Private,,,42.0649,-71.2441,,,,,,,,,,,,,,,
,,133,HILLTOWN RESOURCE MGMT CO-OP,313706,<Plastic & Other>,(413)268-3845,PO BOX 630,MIDDLEFIELD,WILLIAMSBURG,1096,District,,,42.4085,-72.778,,,,,,,,,,,,,,,
,,134,MIDDLETON DPW,280306,<Plastic & Other>,(978)777-0407,195 N MAIN ST,MIDDLETON,MIDDLETON,1949,Municipal,,,42.5942,-71.013,,,,,,,,,,,,,,,
,,135,MILLBURY DPW,173210,<Plastic & Other>,(508)865-0843,127 ELM ST,MILLBURY,MILLBURY,1527,Municipal,,,42.1968,-71.7644,,,,,,,,,,,,,,,
,,136,,575274,<Plastic & Other>,,,MILLBURY,,,,,,0,0,,,,,,,,,,,,,,,
,,137,WHEELABRATOR MILLBURY INC,325504,<Plastic & Other>,(508)791-8900 12,331 SW CUTOFF RD,MILLBURY,MILLBURY,1527,Private,,,42.1968,-71.7644,,,,,,,,,,,,,,,
,,138,MILLIS DPW,173262,<Plastic & Other>,(508)376-5424,7 WATER ST,MILLIS,MILLIS,2054,Municipal,,,42.1669,-71.3607,,,,,,,,,,,,,,,
,,139,TOWN OF MONROE,173191,<Plastic & Other>,(413)424-5271,3 C SCHOOL ST,MONROE,MONROE BRIDGE,1350,Municipal,,,42.7215,-72.9762,,,,,,,,,,,,,,,
,,140,,407357,<Plastic & Other>,,,MONTAGUE,,,,,,0,0,,,,,,,,,,,,,,,
,,141,TOWN OF MONTEREY,173192,<Plastic & Other>,(413)528-1734,40 GOULD RD,MONTEREY,MONTEREY,1245,Municipal,,,42.1867,-73.2065,,,,,,,,,,,,,,,
,,142,TOWN OF MOUNT WASHINGTON,287803,<Plastic & Other>,(413)528-1798,118 EAST ST,MOUNT WASHINGTON,MOUNT WASHINGTON,1258,Municipal,,,42.1012,-73.4566,,,,,,,,,,,,,,,
,,143,WASTE OPTIONS NANTUCKET LLC,303223,<Plastic & Other>,(215)595-4218,188 MADAKET RD,NANTUCKET,NANTUCKET,2554,Private,,,41.2725,-70.0932,,,,,,,,,,,,,,,
,,144,WASTE OPTIONS NANTUCKET LLC,457936,<Plastic & Other>,(215)595-4218,188 MADAKET RD,NANTUCKET,NANTUCKET,2554,Private,,,41.2725,-70.0932,,,,,,,,,,,,,,,
,,145,,531792,<Plastic & Other>,,,NANTUCKET,,,,,,0,0,,,,,,,,,,,,,,,
,,146,"WASTE OPTIONS NANTUCKET,LLC",173149,<Plastic & Other>,(215)595-4218,188 MADAKET ROAD,NEEDHAM,NANTUCKET,2554,Private,,,41.2725,-70.0932,,,,,,,,,,,,,,,
,,147,CITY OF NEW BEDFORD,319489,<Plastic & Other>,(508)991-6133,1103 SHAWMUT AVE,NEW BEDFORD,NEW BEDFORD,2719,Municipal,,,41.6409,-70.8896,,,,,,,,,,,,,,,
,,148,"NEW BEDFORD WASTE SERVICES, LLC",319953,<Plastic & Other>,(508)910-0002,1245 SHAWMUT AVE,NEW BEDFORD,NEW BEDFORD,2746,Private,,,41.66,-70.9324,,,,,,,,,,,,,,,
,,149,TOWN OF NEW MARLBOROUGH,258599,<Plastic & Other>,(413)229-8116,807 MILL RIVER-SOUTHFIELD RD,NEW MARLBOROUGH,MILL RIVER,01244-0099,Municipal,,,42.1228,-73.254,,,,,,,,,,,,,,,
,,150,FRANKLIN COUNTY SW MGMT DIST,173194,<Plastic & Other>,(413)772-2438,50 MILES ST,NEW SALEM,GREENFIELD,1301,District,,,42.6013,-72.6236,,,,,,,,,,,,,,,
,,151,NEWBURY BOARD OF HEALTH,371732,<Plastic & Other>,(978)465-0862 316,25 HIGH RD,NEWBURY,NEWBURY,1951,Municipal,,,42.7835,-70.8474,,,,,,,,,,,,,,,
,,152,NORFOLK DPW,255431,<Plastic & Other>,(508)528-4990,33 MEDWAY BRANCH,NORFOLK,NORFOLK,2056,Municipal,,,42.1177,-71.3269,,,,,,,,,,,,,,,
,,153,CITY OF NORTH ADAMS,329263,<Plastic & Other>,(413)662-3000 3235,10 MAIN ST,NORTH ADAMS,NORTH ADAMS,1247,Municipal,,,42.6955,-73.08,,,,,,,,,,,,,,,
,,154,THOMSON BROTHERS INDUSTRIES,291858,<Plastic & Other>,(978)686-2020,210 HOLT RD,NORTH ANDOVER,NORTH ANDOVER,1854,Private,,,42.6493,-71.3355,,,,,,,,,,,,,,,
,,155,TOWN OF NORTH ATTLEBOROUGH,364008,<Plastic & Other>,(508)699-0105,43 SOUTH WASHINGTON ST,NORTH ATTLEBOROUGH,NORTH ATTLEBOROUGH,2760,Municipal,,,41.9775,-71.3298,,,,,,,,,,,,,,,
,,156,NORTH BROOKFIELD BOH,173260,<Plastic & Other>,(508)867-0201,215 NORTH MAIN ST,NORTH BROOKFIELD,NORTH BROOKFIELD,1535,Municipal,,,42.2665,-72.0821,,,,,,,,,,,,,,,
,,157,VOLUME RECYCLING ASSOCIATES INC,174929,<Plastic & Other>,(413)695-7786,234 EASTHAMPTON ROAD,NORTHAMPTON,NOTHAMPTON,1060,Private,,,42.3223,-72.6313,,,,,,,,,,,,,,,
,,158,,542057,<Plastic & Other>,,,NORTHAMPTON,,,,,,0,0,,,,,,,,,,,,,,,
,,159,NORTHAMPTION DPW,40017,<Plastic & Other>,(413)587-1059,125 LOCUST STREET,NORTHAMPTON,NORTHAMPTON,01060-3167,Municipal,,,42.3223,-72.6313,,,,,,,,,,,,,,,
,,160,TJJ DEVELOPMENT CORP,294909,<Plastic & Other>,(508)234-2920,PO BOX 90,NORTHBRIDGE,WHITINSVILLE,1588,Private,,,42.1153,-71.6644,,,,,,,,,,,,,,,
,,161,FRANKLIN COUNTY SW MGMT DIST,173195,<Plastic & Other>,(413)772-2438,50 MILES ST,NORTHFIELD,GREENFIELD,1301,District,,,42.6013,-72.6236,,,,,,,,,,,,,,,
,,162,TOWN OF OAK BLUFFS,173263,<Plastic & Other>,(508)693-2187,347 COUNTY RD,OAK BLUFFS,OAK BLUFFS,2557,Municipal,,,41.4543,-70.562,,,,,,,,,,,,,,,
,,163,TISBURY DPW,271314,<Plastic & Other>,(508)696-5220,PO BOX 788,OAK BLUFFS,VINEYARD HAVEN,2568,Municipal,,,41.45,-70.5937,,,,,,,,,,,,,,,
,,164,TOWN OF ORANGE RECYCLING CTR,279423,<Plastic & Other>,(978)544-1118,"TOWN HALL, 6 PROSPECT ST",ORANGE,ORANGE,1364,Municipal,,,42.6129,-72.2924,,,,,,,,,,,,,,,
,,165,DANIELS RECYCLING COMPANY INC,379180,<Plastic & Other>,(508)255-7033,23 GIDDIAH HILL RD,ORLEANS,ORLEANS,2653,Private,,,41.7792,-69.9822,,,,,,,,,,,,,,,
,,166,ORLEANS HIGHWAY DEPT,319963,<Plastic & Other>,(508)240-3790,19 SCHOOL RD,ORLEANS,ORLEANS,2653,Municipal,,,41.7792,-69.9822,,,,,,,,,,,,,,,
,,167,OTIS BOARD OF HEALTH,173216,<Plastic & Other>,(413)269-0100 104,1 NORTH MAIN RD,OTIS,OTIS,1253,Municipal,,,42.1931,-73.0918,,,,,,,,,,,,,,,
,,168,"OXFORD TRANSFER STATION, LLC",290748,<Plastic & Other>,(207)653-4421,"110 MAIN STREET, SUITE 1308",OXFORD,SACO,4072,Private,,,43.5209,-70.4546,,,,,,,,,,,,,,,
,,169,ALLIED WASTE SYSTEMS INC,326369,<Plastic & Other>,(781)560-1371,320A CHARGER ST,PEABODY,REVERE,2151,Private,,,42.4138,-71.0052,,,,,,,,,,,,,,,
,,170,ALLIED WASTE SYSTEMS INC,326372,<Plastic & Other>,(781)560-1371,320A CHARGER ST,PEABODY,REVERE,2151,Private,,,42.4138,-71.0052,,,,,,,,,,,,,,,
,,171,PEMBROKE BOS,432489,<Plastic & Other>,(781)293-3844,100 CENTER ST,PEMBROKE,PEMBROKE,2359,Municipal,,,42.0621,-70.8044,,,,,,,,,,,,,,,
,,172,PEPPERELL HIWAY DEPT,266336,<Plastic & Other>,(978)433-5735,45 LOWELL RD,PEPPERELL,PEPPERELL,1463,Municipal,,,42.6689,-71.5934,,,,,,,,,,,,,,,
,,173,TOWN OF PERU,286523,<Plastic & Other>,(413)655-8224,"PO BOX 479, MAIN RD",PERU,PERU,1235,Municipal,,,42.4298,-73.0724,,,,,,,,,,,,,,,
,,174,TOWN OF PETERSHAM,172842,<Plastic & Other>,(978)724-0057,"PO BOX 486, 3 SOUTH MAIN ST",PETERSHAM,PETERSHAM,1366,Municipal,,,42.4898,-72.1893,,,,,,,,,,,,,,,
,,175,TOWN OF PHILLIPSTON,173177,<Plastic & Other>,(978)249-1735,50 THE COMMONS,PHILLIPSTON,PHILLIPSTON,1331,Municipal,,,42.5959,-72.2267,,,,,,,,,,,,,,,
,,176,HILLTOWN RESOURCE MGMT CO-OP,173197,<Plastic & Other>,(413)268-3845,PO BOX 630,PLAINFIELD,WILLIAMSBURG,1096,District,,,42.4085,-72.778,,,,,,,,,,,,,,,
,,177,PLYMOUTH DPW,274590,<Plastic & Other>,(508)747-1620 201,11 LINCOLN ST,PLYMOUTH,PLYMOUTH,2360,Municipal,,,41.9104,-70.642,,,,,,,,,,,,,,,
,,178,PLYMPTON HIGHWAY DEPT,172859,<Plastic & Other>,(781)589-3310,23 PALMER RD,PLYMPTON,PLYMPTON,2367,Municipal,,,41.9655,-70.8046,,,,,,,,,,,,,,,
,,179,PROVINCETOWN DPW,319156,<Plastic & Other>,(508)487-7060,26 ALDEN ST,PROVINCETOWN,PROVINCETOWN,2657,Municipal,,,42.0534,-70.1865,,,,,,,,,,,,,,,
,,180,WASTE MANAGEMENT OF MA,373036,<Plastic & Other>,(508)549-8057,26 PATRIOT PLACE- STE 300,RAYNHAM,FOXBOROUGH,2035,Private,,,42.0649,-71.2441,,,,,,,,,,,,,,,
,,181,RAYNHAM HIGHWAY DEPT,327752,<Plastic & Other>,(508)824-2718,1555 KING PHILIP ST,RAYNHAM,RAYNHAM,2767,Municipal,,,41.9324,-71.0469,,,,,,,,,,,,,,,
,,182,,605468,<Plastic & Other>,,,RAYNHAM,,,,,,0,0,,,,,,,,,,,,,,,
,,183,REHOBOTH SOLID WASTE DEPT,324088,<Plastic & Other>,(508)252-6987,148R PECK ST,REHOBOTH,REHOBOTH,2769,Municipal,,,41.8515,-71.2545,,,,,,,,,,,,,,,
,,184,SEMASS PARTNERSHIP,281379,<Plastic & Other>,(508)291-4436,141 CRANBERRY HWY,ROCHESTER,WEST WAREHAM,2576,Private,,,41.7796,-70.7642,,,,,,,,,,,,,,,
,,185,NEW BEDFORD WASTE SERVICES LLC,281845,<Plastic & Other>,(508)910-0002,1245 SHAWMUT AVE,ROCHESTER,NEW BEDFORD,2746,Private,,,41.66,-70.9324,,,,,,,,,,,,,,,
,,186,,522119,<Plastic & Other>,,,ROCHESTER,,,,,,0,0,,,,,,,,,,,,,,,
,,187,ROCKLAND BOH,289457,<Plastic & Other>,(781)871-0154 150,242 UNION ST,ROCKLAND,ROCKLAND,2370,Municipal,,,42.1293,-70.9133,,,,,,,,,,,,,,,
,,188,ROCKPORT DPW,173159,<Plastic & Other>,(978)546-3525,PO BOX 329,ROCKPORT,ROCKPORT,1966,Municipal,,,42.658,-70.6194,,,,,,,,,,,,,,,
,,189,FRANKLIN COUNTY SW MGMT DIST,173198,<Plastic & Other>,(413)772-2438,50 MILES ST,ROWE,GREENFIELD,1301,District,,,42.6013,-72.6236,,,,,,,,,,,,,,,
,,190,TOWN OF ROYALSTON,412357,<Plastic & Other>,(978)249-3617,PO BOX 102,ROYALSTON,ROYALSTON,1368,Municipal,,,42.6722,-72.1964,,,,,,,,,,,,,,,
,,191,TOWN OF RUSSELL,173254,<Plastic & Other>,(413)862-3265,65 MAIN ST,RUSSELL,RUSSELL,1071,Municipal,,,42.1471,-72.8403,,,,,,,,,,,,,,,
,,192,NORTHSIDE CARTING INC,173161,<Plastic & Other>,(978)686-2020,210 HOLT RD,SALEM,NORTH ANDOVER,1845,Private,,,42.6826,-71.109,,,,,,,,,,,,,,,
,,193,TOWN OF SANDISFIELD,173199,<Plastic & Other>,(413)258-4711,PO BOX 90,SANDISFIELD,SANDISFIELD,1255,Municipal,,,42.1094,-73.1163,,,,,,,,,,,,,,,
,,194,"NEW BEDFORD WASTE SVS, LLC SANDWICH DIV",308543,<Plastic & Other>,(508)910-0002,1245 SHAWMUT AVE,SANDWICH,NEW BEDFORD,2747,Private,,,41.6338,-70.9958,,,,,,,,,,,,,,,
,,195,NEW BEDFORD WASTE SVS LLC,513300,<Plastic & Other>,(508)910-0002,1245 SHAWMUT AVE,SANDWICH,NEW BEDFORD,2737,Private,,,0,0,,,,,,,,,,,,,,,
,,196,SANDWICH DPW,320726,<Plastic & Other>,(508)833-8002,500 RTE 130,SANDWICH,SANDWICH,2563,Municipal,,,41.7113,-70.4775,,,,,,,,,,,,,,,
,,197,CAVOSSA DISPOSAL CORP,329412,<Plastic & Other>,(508)563-5070,210 NATHAN ELLIS HIGHWAY,SANDWICH,EAST FALMOUTH,2536,Municipal,,,41.5968,-70.5671,,,,,,,,,,,,,,,
,,198,TOWN OF SAVOY,173259,<Plastic & Other>,(413)743-4290,720 MAIN RD,SAVOY,SAVOY,1256,Municipal,,,42.577,-73.0233,,,,,,,,,,,,,,,
,,199,SCITUATE DPW,314084,<Plastic & Other>,(781)545-8731,600 CHIEF JUSTICE CUSHING HWY,SCITUATE,SCITUATE,2066,Municipal,,,42.2032,-70.7525,,,,,,,,,,,,,,,
,,200,TOWN OF SHEFFIELD,173200,<Plastic & Other>,(413)229-7000 152,"PO BOX 325, 21 DEPOT SQ",SHEFFIELD,SHEFFIELD,1257,Municipal,,,42.1001,-73.3611,,,,,,,,,,,,,,,
,,201,TOWN OF SHERBORN,173160,<Plastic & Other>,(508)651-7850,19 WASHINGTON ST,SHERBORN,SHERBORN,1770,Municipal,,,42.2331,-71.3787,,,,,,,,,,,,,,,
,,202,SOMERSET HIGHWAY DEPARTMENT,172935,<Plastic & Other>,(508)646-2835,1263 BRAYTON POINT RD,SOMERSET,SOMERSET,2726,Municipal,,,41.756,-71.1492,,,,,,,,,,,,,,,
,,203,,544240,<Plastic & Other>,,,SOUTH HADLEY,,,,,,0,0,,,,,,,,,,,,,,,
,,204,TOWN OF SOUTHAMPTON,358468,<Plastic & Other>,(413)527-3666,"FOMER RD, PO BOX 379",SOUTHAMPTON,SOUTHAMPTON,1073,Municipal,,,42.2247,-72.7194,,,,,,,,,,,,,,,
,,205,SOUTHBOROUGH DPW,173179,<Plastic & Other>,(508)485-1210,147 CORDEVILLE RD,SOUTHBOROUGH,SOUTHBOROUGH,01772-1802,Municipal,,,42.2939,-71.532,,,,,,,,,,,,,,,
,,206,SOUTHBRIDGE RECYCLING & DISPOSAL PARK,312935,<Plastic & Other>,(774)364-1940,165 BAREFOOT RD,SOUTHBRIDGE,SOUTHBRIDGE,1550,Private,,,42.075,-72.0353,,,,,,,,,,,,,,,
,,207,SOUTHWICK DPW,173237,<Plastic & Other>,(413)569-3040,454 COLLEGE HIWY,SOUTHWICK,SOUTHWICK,01077-9800,Municipal,,,42.0511,-72.7706,,,,,,,,,,,,,,,
,,208,TOWN OF SPENCER,172953,<Plastic & Other>,(508)885-7525,3 OLD MEADOW ROAD,SPENCER,SPENCER,1562,Municipal,,,42.2441,-71.9906,,,,,,,,,,,,,,,
,,209,ALLIED WASTE SERVICES OF MA LLC,418670,<Plastic & Other>,(413)781-0425,44 ROSE ST,SPRINGFIELD,SPRINGFIELD,1104,Private,,,42.1288,-72.5778,,,,,,,,,,,,,,,
,,210,TOWN OF STOCKBRIDGE,173201,<Plastic & Other>,(413)298-4170,"50 MAIN ST, PO BOX 417",STOCKBRIDGE,STOCKBRIDGE,1262,Municipal,,,42.301,-73.3223,,,,,,,,,,,,,,,
,,211,STOUGHTON RECYCLING TECHNOLOGIES,172972,<Plastic & Other>,(781)341-9920,100 PAGE ST,STOUGHTON,STOUGHTON,2072,Private,,,42.1253,-71.1074,,,,,,,,,,,,,,,
,,212,STURBRIDGE BOARD OF HEALTH,356820,<Plastic & Other>,(508)347-2504,308 MAIN ST,STURBRIDGE,STURBRIDGE,1566,Municipal,,,42.1126,-72.0842,,,,,,,,,,,,,,,
,,213,SUDBURY DPW,318294,<Plastic & Other>,(978)443-2209 1390,275 OLD LANCASTER RD,SUDBURY,SUDBURY,1776,Municipal,,,42.3837,-71.4282,,,,,,,,,,,,,,,
,,214,TOWN OF SUTTON,292246,<Plastic & Other>,(508)865-8720,"MUNICIPAL CNTR, 4 UXBRIGE RD",SUTTON,SUTTON,1590,Municipal,,,42.1266,-71.7552,,,,,,,,,,,,,,,
,,215,NEW ENGLAND RECYCLING INC,301481,<Plastic & Other>,(508)822-4345,569 WINTHROP ST,TAUNTON,TAUNTON,2780,Private,,,41.905,-71.1026,,,,,,,,,,,,,,,
,,216,,586446,<Plastic & Other>,,,TAUNTON,,,,,,0,0,,,,,,,,,,,,,,,
,,217,TISBURY DPW,299613,<Plastic & Other>,(508)696-4220,PO BOX 788,TISBURY,VINEYARD HAVEN,2568,Municipal,,,41.45,-70.5937,,,,,,,,,,,,,,,
,,218,TOWN OF TOLLAND,173243,<Plastic & Other>,(413)258-4794,241 WEST GRANVILLE RD,TOLLAND,TOLLAND,1034,Municipal,,,42.1127,-72.952,,,,,,,,,,,,,,,
,,219,TOWN OF TRURO,186657,<Plastic & Other>,(508)349-2140,PO BOX 2030,TRURO,TRURO,2666,Municipal,,,41.9988,-70.0564,,,,,,,,,,,,,,,
,,220,TOWN OF TYRINGHAM,319145,<Plastic & Other>,(413)243-1749,"PO BOX 442, MAIN RD",TYRINGHAM,TYRINGHAM,1264,Municipal,,,42.22,-73.1979,,,,,,,,,,,,,,,
,,221,TOWN OF WALES,173023,<Plastic & Other>,(413)245-7571,"TOWN HALL, PO BOX 834",WALES,WALES,1081,Municipal,,,42.0627,-72.2046,,,,,,,,,,,,,,,
,,222,"TRI COUNTY RECYCLING, INC.",377540,<Plastic & Other>,(413)967-7046,198 EAST ST,WARE,WARE,1082,Private,,,42.2618,-72.2583,,,,,,,,,,,,,,,
,,223,TOWN OF WARREN,527161,<Plastic & Other>,(413)436-5701,"48 HIGH ST, PO BOX 478",WARREN,WARREN,1083,Municipal,,,42.204,-72.1994,,,,,,,,,,,,,,,
,,224,FRANKLIN COUNTY SW MGMT DIST,324061,<Plastic & Other>,(413)772-2438,50 MILES ST,WARWICK,GREENFIELD,1301,District,,,42.6013,-72.6236,,,,,,,,,,,,,,,
,,225,TOWN OF WASHINGTON,366776,<Plastic & Other>,(413)623-8878,"8 SUMMIT HILL RD, TOWN HALL",WASHINGTON,WASHINGTON,1223,Municipal,,,42.3594,-73.1203,,,,,,,,,,,,,,,
,,226,WAYLAND DPW,463945,<Plastic & Other>,(508)358-7910,484 BOSTON POST RD,WAYLAND,WAYLAND,1778,Municipal,,,42.3486,-71.3588,,,,,,,,,,,,,,,
,,227,LITTLE RIVER RECYCLING INC,40035,<Plastic & Other>,(508)987-1187,PO BOX 607,WEBSTER,WEBSTER,1570,Municipal,,,42.0521,-71.8486,,,,,,,,,,,,,,,
,,228,WELLESLEY DPW,173057,<Plastic & Other>,(781)235-7600 3340,169 GREAT PLAIN AVE,WELLESLEY,WELLESLEY,2481,Municipal,,,42.3106,-71.2747,,,,,,,,,,,,,,,
,,229,WELLFLEET DPW,173273,<Plastic & Other>,(508)349-0315,220 WEST MAIN ST,WELLFLEET,WELLFLEET,2667,Municipal,,,41.9289,-70.0186,,,,,,,,,,,,,,,
,,230,FRANKLIN COUNTY SW MGMT DIST,173247,<Plastic & Other>,(413)772-2438,50 MILES ST,WENDELL,GREENFIELD,1301,District,,,42.6013,-72.6236,,,,,,,,,,,,,,,
,,231,WEST BRIDGEWATER HIGHWAY DEPT,173064,<Plastic & Other>,(508)894-1216,63 NORTH MAIN ST,WEST BRIDGEWATER,WEST BRIDGEWATER,2379,Municipal,,,42.0255,-71.0161,,,,,,,,,,,,,,,
,,232,,527259,<Plastic & Other>,,,WEST SPRINGFIELD,,,,,,0,0,,,,,,,,,,,,,,,
,,233,TOWN OF WEST STOCKBRIDGE,173215,<Plastic & Other>,(413)232-0300,21 STATE LINE RD,WEST STOCKBRIDGE,WEST STOCKBRIDGE,1266,Municipal,,,42.3348,-73.3825,,,,,,,,,,,,,,,
,,234,MARTHAS VINEYARD REFUSE DIST,305265,<Plastic & Other>,(508)627-4501,750 WEST TISBURY RD,WEST TISBURY,EDGARTOWN,2539,Municipal,,,41.3889,-70.5339,,,,,,,,,,,,,,,
,,235,EL HARVEY & SONS,12,<Plastic & Other>,(508)836-3000,68 HOPKINTON RD,WESTBOROUGH,WESTBOROUGH,1581,Private,,,42.2679,-71.6176,,,,,,,,,,,,,,,
,,236,EL HARVEY & SONS INC,173212,<Plastic & Other>,(508)836-3000,68 HOPKINTON RD,WESTBOROUGH,WESTBOROUGH,1518,Private,,,42.1228,-72.1178,,,,,,,,,,,,,,,
,,237,WESTFIELD HEALTH DEPT,331306,<Plastic & Other>,(413)572-6210,59 COURT ST,WESTFIELD,WESTFIELD,1085,Municipal,,,42.1251,-72.7495,,,,,,,,,,,,,,,
,,238,HILLTOWN RESOURCE MGMT CO-OP,318020,<Plastic & Other>,(413)268-3845,PO BOX 630,WESTHAMPTON,WILLIAMSBURG,1096,District,,,42.4085,-72.778,,,,,,,,,,,,,,,
,,239,RESOURCE CONTROL INC (WMI),394210,<Plastic & Other>,(413)275-1513,600 NEW LUDLOW ROAD,WESTMINSTER,SOUTH HADLEY,1075,Private,,,42.2375,-72.5811,,,,,,,,,,,,,,,
,,240,RESOURCE CONTROL INC (WMI),392728,<Plastic & Other>,(978)355-6821,99 BARRE DEPOT RD,WESTMINSTER,BARRE,1005,Private,,,42.4097,-72.1084,,,,,,,,,,,,,,,
,,241,WESTON DPW,173163,<Plastic & Other>,(781)893-1263,190 BOSTON POST RD BY-PASS,WESTON,WESTON,2493,Municipal,,,42.3589,-71.3001,,,,,,,,,,,,,,,
,,242,TOWN OF WESTPORT,318225,<Plastic & Other>,(508)636-1015,856 MAIN RD,WESTPORT,WESTPORT,2790,Municipal,,,41.6211,-71.089,,,,,,,,,,,,,,,
,,243,WHATELY WASTE MGMT COMMITTEE,280294,<Plastic & Other>,(413)665-4561,C/O 19 POPLAR HILL RD,WHATELY,HAYDENVILLE,1093,Municipal,,,42.4427,-72.6525,,,,,,,,,,,,,,,
,,244,CEE JAY REALTY TRUST,321802,<Plastic & Other>,(781)447-0137,106 ESSEX ST,WHITMAN,WHITMAN,2382,Private,,,42.0816,-70.9381,,,,,,,,,,,,,,,
,,245,WASTE MANAGEMENT OF MA,291801,<Plastic & Other>,(860)746-3200,120 OLD BOSTON RD,WILBRAHAM,WILBRAHAM,1095,Private,,,42.1245,-72.4464,,,,,,,,,,,,,,,
,,246,WILBRAHAM DPW,173249,<Plastic & Other>,(413)596-2800 208,"TOWN HALL, 240 SPRINGFIELD ST",WILBRAHAM,WILBRAHAM,1095,Municipal,,,42.1245,-72.4464,,,,,,,,,,,,,,,
,,247,HILLTOWN RESOURCE MGMT CO-OP,280304,<Plastic & Other>,(413)268-3845,PO BOX 630,WILLIAMSBURG,WILLIAMSBURG,1096,District,,,42.4085,-72.778,,,,,,,,,,,,,,,
,,248,TOWN OF WILLIAMSTOWN,368005,<Plastic & Other>,(413)458-5159,675 SIMONDS RD,WILLIAMSTOWN,WILLIAMSTOWN,1267,Municipal,,,42.7089,-73.2036,,,,,,,,,,,,,,,
,,249,TOWN OF WINCHENDON,359934,<Plastic & Other>,(978)297-0170,109 FRONT ST,WINCHENDON,WINCHENDON,1475,Municipal,,,42.6789,-72.0475,,,,,,,,,,,,,,,
,,250,TOWN OF WINCHESTER,173111,<Plastic & Other>,(781)721-7178,15 LAKE ST,WINCHESTER,WINCHESTER,1890,Municipal,,,42.453,-71.1441,,,,,,,,,,,,,,,
,,251,TOWN OF WINDSOR,173275,<Plastic & Other>,(413)684-3811,"1890 RTE 9, STE 1",WINDSOR,WINDSOR,1270,Municipal,,,42.515,-73.0412,,,,,,,,,,,,,,,
,,252,,511231,<Plastic & Other>,,,WORCESTER,,,,,,0,0,,,,,,,,,,,,,,,
,,253,HILLTOWN RESOURCE MGMT CO-OP,173238,<Plastic & Other>,(413)268-3845,PO BOX 630,WORTHINGTON,WILLIAMSBURG,1096,District,,,42.4085,-72.778,,,,,,,,,,,,,,,
,,254,COVANTA COMPANY OF SEMASS LLC,329275,<Plastic & Other>,(508)291-4436,141 CRANBERRY HIGHWAY,YARMOUTH,WEST WAREHAM,2576,Municipal,,,41.7796,-70.7642,,,,,,,,,,,,,,,
,,255,TOWN OF YARMOUTH DPW,266530,<Plastic & Other>,(508)398-2231 1515,597 FOREST RD,YARMOUTH,SOUTH YARMOUTH,2664,Municipal,,,41.6739,-70.1949,,,,,,,,,,,,,,,
7,New Hampshire,1,ROCHESTER MATERIALS RECOVERY FACILITY,,<Plastic & Other>,603-731-7440,321 ROCHESTER NECK ROAD,,ROCHESTER,03839,,,,43.262,-70.9837,,,,,,,,,,,,,,,
,,2,AVRRDD MATERIALS RECYCLING FACILITY,,<Plastic & Other>,603-752-3342,100 WEST MILAN RD,,BERLIN,03570,,,,44.4811,-71.1892,,,,,,,,,,,,,,,
,,3,NEW HAMPSHIRE COOPERATIVE RECYCLING FACILITY,,<Plastic & Other>,,WHITNEY ROAD,,CONCORD,03303,,,,43.2817,-71.6595,,,,,,,,,,,,,,,
,,,,,,,,,,,,,,,,,,,,,,,,,,,,,,
,,,,,,,,,,,,,,,,,,,,,,,,,,,,,,
,,,,,,,,,,,,,,,,,,,,,,,,,,,,,,
,,,,,,,,,,,,,,,,,,,,,,,,,,,,,,
,,,,,,,,,,,,,,,,,,,,,,,,,,,,,,
,,,,,,,,,,,,,,,,,,,,,,,,,,,,,,
,,,,,,,,,,,,,,,,,,,,,,,,,,,,,,
,,,,,,,,,,,,,,,,,,,,,,,,,,,,,,
,,,,,,,,,,,,,,,,,,,,,,,,,,,,,,
,,,,,,,,,,,,,,,,,,,,,,,,,,,,,,
,,,,,,,,,,,,,,,,,,,,,,,,,,,,,,
,,,,,,,,,,,,,,,,,,,,,,,,,,,,,,
,,,,,,,,,,,,,,,,,,,,,,,,,,,,,,
,,,,,,,,,,,,,,,,,,,,,,,,,,,,,,
,,,,,,,,,,,,,,,,,,,,,,,,,,,,,,
,,,,,,,,,,,,,,,,,,,,,,,,,,,,,,
,,,,,,,,,,,,,,,,,,,,,,,,,,,,,,
,,,,,,,,,,,,,,,,,,,,,,,,,,,,,,
,,,,,,,,,,,,,,,,,,,,,,,,,,,,,,
,,,,,,,,,,,,,,,,,,,,,,,,,,,,,,
,,,,,,,,,,,,,,,,,,,,,,,,,,,,,,
,,,,,,,,,,,,,,,,,,,,,,,,,,,,,,
,,,,,,,,,,,,,,,,,,,,,,,,,,,,,,
,,,,,,,,,,,,,,,,,,,,,,,,,,,,,,
,,,,,,,,,,,,,,,,,,,,,,,,,,,,,,
,,,,,,,,,,,,,,,,,,,,,,,,,,,,,,
,,,,,,,,,,,,,,,,,,,,,,,,,,,,,,
,,,,,,,,,,,,,,,,,,,,,,,,,,,,,,
,,,,,,,,,,,,,,,,,,,,,,,,,,,,,,
,,,,,,,,,,,,,,,,,,,,,,,,,,,,,,
,,,,,,,,,,,,,,,,,,,,,,,,,,,,,,
,,,,,,,,,,,,,,,,,,,,,,,,,,,,,,
,,,,,,,,,,,,,,,,,,,,,,,,,,,,,,
,,,,,,,,,,,,,,,,,,,,,,,,,,,,,,
,,,,,,,,,,,,,,,,,,,,,,,,,,,,,,
,,,,,,,,,,,,,,,,,,,,,,,,,,,,,,
,,,,,,,,,,,,,,,,,,,,,,,,,,,,,,
,,,,,,,,,,,,,,,,,,,,,,,,,,,,,,
,,,,,,,,,,,,,,,,,,,,,,,,,,,,,,
,,,,,,,,,,,,,,,,,,,,,,,,,,,,,,
,,,,,,,,,,,,,,,,,,,,,,,,,,,,,,
,,,,,,,,,,,,,,,,,,,,,,,,,,,,,,
,,,,,,,,,,,,,,,,,,,,,,,,,,,,,,
,,,,,,,,,,,,,,,,,,,,,,,,,,,,,,
,,,,,,,,,,,,,,,,,,,,,,,,,,,,,,
,,,,,,,,,,,,,,,,,,,,,,,,,,,,,,
,,,,,,,,,,,,,,,,,,,,,,,,,,,,,,
,,,,,,,,,,,,,,,,,,,,,,,,,,,,,,
,,,,,,,,,,,,,,,,,,,,,,,,,,,,,,
,,,,,,,,,,,,,,,,,,,,,,,,,,,,,,
,,,,,,,,,,,,,,,,,,,,,,,,,,,,,,
,,,,,,,,,,,,,,,,,,,,,,,,,,,,,,
,,,,,,,,,,,,,,,,,,,,,,,,,,,,,,
,,,,,,,,,,,,,,,,,,,,,,,,,,,,,,
,,,,,,,,,,,,,,,,,,,,,,,,,,,,,,
,,,,,,,,,,,,,,,,,,,,,,,,,,,,,,
,,,,,,,,,,,,,,,,,,,,,,,,,,,,,,
,,,,,,,,,,,,,,,,,,,,,,,,,,,,,,
,,,,,,,,,,,,,,,,,,,,,,,,,,,,,,
,,,,,,,,,,,,,,,,,,,,,,,,,,,,,,
,,,,,,,,,,,,,,,,,,,,,,,,,,,,,,
,,,,,,,,,,,,,,,,,,,,,,,,,,,,,,
,,,,,,,,,,,,,,,,,,,,,,,,,,,,,,
,,,,,,,,,,,,,,,,,,,,,,,,,,,,,,
,,,,,,,,,,,,,,,,,,,,,,,,,,,,,,
,,,,,,,,,,,,,,,,,,,,,,,,,,,,,,
,,,,,,,,,,,,,,,,,,,,,,,,,,,,,,
,,,,,,,,,,,,,,,,,,,,,,,,,,,,,,
,,,,,,,,,,,,,,,,,,,,,,,,,,,,,,
,,,,,,,,,,,,,,,,,,,,,,,,,,,,,,
,,,,,,,,,,,,,,,,,,,,,,,,,,,,,,
,,,,,,,,,,,,,,,,,,,,,,,,,,,,,,
,,,,,,,,,,,,,,,,,,,,,,,,,,,,,,
,,,,,,,,,,,,,,,,,,,,,,,,,,,,,,
,,,,,,,,,,,,,,,,,,,,,,,,,,,,,,
,,,,,,,,,,,,,,,,,,,,,,,,,,,,,,
,,,,,,,,,,,,,,,,,,,,,,,,,,,,,,
,,,,,,,,,,,,,,,,,,,,,,,,,,,,,,
,,,,,,,,,,,,,,,,,,,,,,,,,,,,,,
,,,,,,,,,,,,,,,,,,,,,,,,,,,,,,
,,,,,,,,,,,,,,,,,,,,,,,,,,,,,,
,,,,,,,,,,,,,,,,,,,,,,,,,,,,,,
,,,,,,,,,,,,,,,,,,,,,,,,,,,,,,
,,,,,,,,,,,,,,,,,,,,,,,,,,,,,,
,,,,,,,,,,,,,,,,,,,,,,,,,,,,,,
,,,,,,,,,,,,,,,,,,,,,,,,,,,,,,
,,,,,,,,,,,,,,,,,,,,,,,,,,,,,,
,,,,,,,,,,,,,,,,,,,,,,,,,,,,,,
,,,,,,,,,,,,,,,,,,,,,,,,,,,,,,
,,,,,,,,,,,,,,,,,,,,,,,,,,,,,,
,,,,,,,,,,,,,,,,,,,,,,,,,,,,,,
,,,,,,,,,,,,,,,,,,,,,,,,,,,,,,
,,,,,,,,,,,,,,,,,,,,,,,,,,,,,,
,,,,,,,,,,,,,,,,,,,,,,,,,,,,,,
,,,,,,,,,,,,,,,,,,,,,,,,,,,,,,
,,,,,,,,,,,,,,,,,,,,,,,,,,,,,,
,,,,,,,,,,,,,,,,,,,,,,,,,,,,,,
,,,,,,,,,,,,,,,,,,,,,,,,,,,,,,
,,,,,,,,,,,,,,,,,,,,,,,,,,,,,,
,,,,,,,,,,,,,,,,,,,,,,,,,,,,,,
,,,,,,,,,,,,,,,,,,,,,,,,,,,,,,
,,,,,,,,,,,,,,,,,,,,,,,,,,,,,,
,,,,,,,,,,,,,,,,,,,,,,,,,,,,,,
,,,,,,,,,,,,,,,,,,,,,,,,,,,,,,
,,,,,,,,,,,,,,,,,,,,,,,,,,,,,,
,,,,,,,,,,,,,,,,,,,,,,,,,,,,,,
,,,,,,,,,,,,,,,,,,,,,,,,,,,,,,
,,,,,,,,,,,,,,,,,,,,,,,,,,,,,,
,,,,,,,,,,,,,,,,,,,,,,,,,,,,,,
,,,,,,,,,,,,,,,,,,,,,,,,,,,,,,
,,,,,,,,,,,,,,,,,,,,,,,,,,,,,,
,,,,,,,,,,,,,,,,,,,,,,,,,,,,,,
,,,,,,,,,,,,,,,,,,,,,,,,,,,,,,
,,,,,,,,,,,,,,,,,,,,,,,,,,,,,,
,,,,,,,,,,,,,,,,,,,,,,,,,,,,,,
,,,,,,,,,,,,,,,,,,,,,,,,,,,,,,
,,,,,,,,,,,,,,,,,,,,,,,,,,,,,,
,,,,,,,,,,,,,,,,,,,,,,,,,,,,,,
,,,,,,,,,,,,,,,,,,,,,,,,,,,,,,
,,,,,,,,,,,,,,,,,,,,,,,,,,,,,,
,,,,,,,,,,,,,,,,,,,,,,,,,,,,,,
,,,,,,,,,,,,,,,,,,,,,,,,,,,,,,
,,,,,,,,,,,,,,,,,,,,,,,,,,,,,,
,,,,,,,,,,,,,,,,,,,,,,,,,,,,,,
,,,,,,,,,,,,,,,,,,,,,,,,,,,,,,
,,,,,,,,,,,,,,,,,,,,,,,,,,,,,,
,,,,,,,,,,,,,,,,,,,,,,,,,,,,,,
,,,,,,,,,,,,,,,,,,,,,,,,,,,,,,
,,,,,,,,,,,,,,,,,,,,,,,,,,,,,,
,,,,,,,,,,,,,,,,,,,,,,,,,,,,,,
,,,,,,,,,,,,,,,,,,,,,,,,,,,,,,
,,,,,,,,,,,,,,,,,,,,,,,,,,,,,,
,,,,,,,,,,,,,,,,,,,,,,,,,,,,,,
,,,,,,,,,,,,,,,,,,,,,,,,,,,,,,
,,,,,,,,,,,,,,,,,,,,,,,,,,,,,,
,,,,,,,,,,,,,,,,,,,,,,,,,,,,,,
,,,,,,,,,,,,,,,,,,,,,,,,,,,,,,
,,,,,,,,,,,,,,,,,,,,,,,,,,,,,,
,,,,,,,,,,,,,,,,,,,,,,,,,,,,,,
,,,,,,,,,,,,,,,,,,,,,,,,,,,,,,
,,,,,,,,,,,,,,,,,,,,,,,,,,,,,,
,,,,,,,,,,,,,,,,,,,,,,,,,,,,,,
,,,,,,,,,,,,,,,,,,,,,,,,,,,,,,
,,,,,,,,,,,,,,,,,,,,,,,,,,,,,,
,,,,,,,,,,,,,,,,,,,,,,,,,,,,,,
,,,,,,,,,,,,,,,,,,,,,,,,,,,,,,
,,,,,,,,,,,,,,,,,,,,,,,,,,,,,,
,,,,,,,,,,,,,,,,,,,,,,,,,,,,,,
,,,,,,,,,,,,,,,,,,,,,,,,,,,,,,
,,,,,,,,,,,,,,,,,,,,,,,,,,,,,,
,,,,,,,,,,,,,,,,,,,,,,,,,,,,,,
,,,,,,,,,,,,,,,,,,,,,,,,,,,,,,
,,,,,,,,,,,,,,,,,,,,,,,,,,,,,,
,,,,,,,,,,,,,,,,,,,,,,,,,,,,,,
,,,,,,,,,,,,,,,,,,,,,,,,,,,,,,
,,,,,,,,,,,,,,,,,,,,,,,,,,,,,,
,,,,,,,,,,,,,,,,,,,,,,,,,,,,,,
,,,,,,,,,,,,,,,,,,,,,,,,,,,,,,
,,,,,,,,,,,,,,,,,,,,,,,,,,,,,,
,,,,,,,,,,,,,,,,,,,,,,,,,,,,,,
,,,,,,,,,,,,,,,,,,,,,,,,,,,,,,
,,,,,,,,,,,,,,,,,,,,,,,,,,,,,,
,,,,,,,,,,,,,,,,,,,,,,,,,,,,,,
,,,,,,,,,,,,,,,,,,,,,,,,,,,,,,
,,,,,,,,,,,,,,,,,,,,,,,,,,,,,,
,,,,,,,,,,,,,,,,,,,,,,,,,,,,,,
,,,,,,,,,,,,,,,,,,,,,,,,,,,,,,
,,,,,,,,,,,,,,,,,,,,,,,,,,,,,,
,,,,,,,,,,,,,,,,,,,,,,,,,,,,,,
,,,,,,,,,,,,,,,,,,,,,,,,,,,,,,
,,,,,,,,,,,,,,,,,,,,,,,,,,,,,,
,,,,,,,,,,,,,,,,,,,,,,,,,,,,,,
,,,,,,,,,,,,,,,,,,,,,,,,,,,,,,
,,,,,,,,,,,,,,,,,,,,,,,,,,,,,,
,,,,,,,,,,,,,,,,,,,,,,,,,,,,,,
,,,,,,,,,,,,,,,,,,,,,,,,,,,,,,
,,,,,,,,,,,,,,,,,,,,,,,,,,,,,,
,,,,,,,,,,,,,,,,,,,,,,,,,,,,,,
,,,,,,,,,,,,,,,,,,,,,,,,,,,,,,
,,,,,,,,,,,,,,,,,,,,,,,,,,,,,,
,,,,,,,,,,,,,,,,,,,,,,,,,,,,,,
,,,,,,,,,,,,,,,,,,,,,,,,,,,,,,
,,,,,,,,,,,,,,,,,,,,,,,,,,,,,,
,,,,,,,,,,,,,,,,,,,,,,,,,,,,,,
,,,,,,,,,,,,,,,,,,,,,,,,,,,,,,
,,,,,,,,,,,,,,,,,,,,,,,,,,,,,,
,,,,,,,,,,,,,,,,,,,,,,,,,,,,,,
,,,,,,,,,,,,,,,,,,,,,,,,,,,,,,
,,,,,,,,,,,,,,,,,,,,,,,,,,,,,,
,,,,,,,,,,,,,,,,,,,,,,,,,,,,,,
,,,,,,,,,,,,,,,,,,,,,,,,,,,,,,
,,,,,,,,,,,,,,,,,,,,,,,,,,,,,,
,,,,,,,,,,,,,,,,,,,,,,,,,,,,,,
,,,,,,,,,,,,,,,,,,,,,,,,,,,,,,
,,,,,,,,,,,,,,,,,,,,,,,,,,,,,,
,,,,,,,,,,,,,,,,,,,,,,,,,,,,,,
,,,,,,,,,,,,,,,,,,,,,,,,,,,,,,
,,,,,,,,,,,,,,,,,,,,,,,,,,,,,,
,,,,,,,,,,,,,,,,,,,,,,,,,,,,,,
,,,,,,,,,,,,,,,,,,,,,,,,,,,,,,
,,,,,,,,,,,,,,,,,,,,,,,,,,,,,,
,,,,,,,,,,,,,,,,,,,,,,,,,,,,,,
,,,,,,,,,,,,,,,,,,,,,,,,,,,,,,
,,,,,,,,,,,,,,,,,,,,,,,,,,,,,,
,,,,,,,,,,,,,,,,,,,,,,,,,,,,,,
,,,,,,,,,,,,,,,,,,,,,,,,,,,,,,
,,,,,,,,,,,,,,,,,,,,,,,,,,,,,,
,,,,,,,,,,,,,,,,,,,,,,,,,,,,,,
,,,,,,,,,,,,,,,,,,,,,,,,,,,,,,
,,,,,,,,,,,,,,,,,,,,,,,,,,,,,,
,,,,,,,,,,,,,,,,,,,,,,,,,,,,,,
,,,,,,,,,,,,,,,,,,,,,,,,,,,,,,
,,,,,,,,,,,,,,,,,,,,,,,,,,,,,,
,,,,,,,,,,,,,,,,,,,,,,,,,,,,,,
,,,,,,,,,,,,,,,,,,,,,,,,,,,,,,
,,,,,,,,,,,,,,,,,,,,,,,,,,,,,,
,,,,,,,,,,,,,,,,,,,,,,,,,,,,,,
,,,,,,,,,,,,,,,,,,,,,,,,,,,,,,
,,,,,,,,,,,,,,,,,,,,,,,,,,,,,,
,,,,,,,,,,,,,,,,,,,,,,,,,,,,,,
,,,,,,,,,,,,,,,,,,,,,,,,,,,,,,
,,,,,,,,,,,,,,,,,,,,,,,,,,,,,,
,,,,,,,,,,,,,,,,,,,,,,,,,,,,,,
,,,,,,,,,,,,,,,,,,,,,,,,,,,,,,
,,,,,,,,,,,,,,,,,,,,,,,,,,,,,,
,,,,,,,,,,,,,,,,,,,,,,,,,,,,,,
,,,,,,,,,,,,,,,,,,,,,,,,,,,,,,
,,,,,,,,,,,,,,,,,,,,,,,,,,,,,,
,,,,,,,,,,,,,,,,,,,,,,,,,,,,,,
,,,,,,,,,,,,,,,,,,,,,,,,,,,,,,
,,,,,,,,,,,,,,,,,,,,,,,,,,,,,,
,,,,,,,,,,,,,,,,,,,,,,,,,,,,,,
,,,,,,,,,,,,,,,,,,,,,,,,,,,,,,
,,,,,,,,,,,,,,,,,,,,,,,,,,,,,,
,,,,,,,,,,,,,,,,,,,,,,,,,,,,,,
,,,,,,,,,,,,,,,,,,,,,,,,,,,,,,
,,,,,,,,,,,,,,,,,,,,,,,,,,,,,,
,,,,,,,,,,,,,,,,,,,,,,,,,,,,,,
,,,,,,,,,,,,,,,,,,,,,,,,,,,,,,
,,,,,,,,,,,,,,,,,,,,,,,,,,,,,,
,,,,,,,,,,,,,,,,,,,,,,,,,,,,,,
,,,,,,,,,,,,,,,,,,,,,,,,,,,,,,
,,,,,,,,,,,,,,,,,,,,,,,,,,,,,,
,,,,,,,,,,,,,,,,,,,,,,,,,,,,,,
,,,,,,,,,,,,,,,,,,,,,,,,,,,,,,
,,,,,,,,,,,,,,,,,,,,,,,,,,,,,,
,,,,,,,,,,,,,,,,,,,,,,,,,,,,,,
,,,,,,,,,,,,,,,,,,,,,,,,,,,,,,
,,,,,,,,,,,,,,,,,,,,,,,,,,,,,,
,,,,,,,,,,,,,,,,,,,,,,,,,,,,,,
,,,,,,,,,,,,,,,,,,,,,,,,,,,,,,
,,,,,,,,,,,,,,,,,,,,,,,,,,,,,,
,,,,,,,,,,,,,,,,,,,,,,,,,,,,,,
,,,,,,,,,,,,,,,,,,,,,,,,,,,,,,
,,,,,,,,,,,,,,,,,,,,,,,,,,,,,,
,,,,,,,,,,,,,,,,,,,,,,,,,,,,,,
,,,,,,,,,,,,,,,,,,,,,,,,,,,,,,
,,,,,,,,,,,,,,,,,,,,,,,,,,,,,,
,,,,,,,,,,,,,,,,,,,,,,,,,,,,,,
,,,,,,,,,,,,,,,,,,,,,,,,,,,,,,
,,,,,,,,,,,,,,,,,,,,,,,,,,,,,,
,,,,,,,,,,,,,,,,,,,,,,,,,,,,,,
,,,,,,,,,,,,,,,,,,,,,,,,,,,,,,
,,,,,,,,,,,,,,,,,,,,,,,,,,,,,,
,,,,,,,,,,,,,,,,,,,,,,,,,,,,,,
,,,,,,,,,,,,,,,,,,,,,,,,,,,,,,
,,,,,,,,,,,,,,,,,,,,,,,,,,,,,,
,,,,,,,,,,,,,,,,,,,,,,,,,,,,,,
,,,,,,,,,,,,,,,,,,,,,,,,,,,,,,
,,,,,,,,,,,,,,,,,,,,,,,,,,,,,,
,,,,,,,,,,,,,,,,,,,,,,,,,,,,,,
,,,,,,,,,,,,,,,,,,,,,,,,,,,,,,
,,,,,,,,,,,,,,,,,,,,,,,,,,,,,,
,,,,,,,,,,,,,,,,,,,,,,,,,,,,,,
,,,,,,,,,,,,,,,,,,,,,,,,,,,,,,
,,,,,,,,,,,,,,,,,,,,,,,,,,,,,,
,,,,,,,,,,,,,,,,,,,,,,,,,,,,,,
,,,,,,,,,,,,,,,,,,,,,,,,,,,,,,
,,,,,,,,,,,,,,,,,,,,,,,,,,,,,,
,,,,,,,,,,,,,,,,,,,,,,,,,,,,,,
,,,,,,,,,,,,,,,,,,,,,,,,,,,,,,
,,,,,,,,,,,,,,,,,,,,,,,,,,,,,,
,,,,,,,,,,,,,,,,,,,,,,,,,,,,,,
,,,,,,,,,,,,,,,,,,,,,,,,,,,,,,
,,,,,,,,,,,,,,,,,,,,,,,,,,,,,,
,,,,,,,,,,,,,,,,,,,,,,,,,,,,,,
,,,,,,,,,,,,,,,,,,,,,,,,,,,,,,
,,,,,,,,,,,,,,,,,,,,,,,,,,,,,,
,,,,,,,,,,,,,,,,,,,,,,,,,,,,,,
,,,,,,,,,,,,,,,,,,,,,,,,,,,,,,
,,,,,,,,,,,,,,,,,,,,,,,,,,,,,,
,,,,,,,,,,,,,,,,,,,,,,,,,,,,,,
,,,,,,,,,,,,,,,,,,,,,,,,,,,,,,
,,,,,,,,,,,,,,,,,,,,,,,,,,,,,,
,,,,,,,,,,,,,,,,,,,,,,,,,,,,,,
,,,,,,,,,,,,,,,,,,,,,,,,,,,,,,
,,,,,,,,,,,,,,,,,,,,,,,,,,,,,,
,,,,,,,,,,,,,,,,,,,,,,,,,,,,,,
,,,,,,,,,,,,,,,,,,,,,,,,,,,,,,
,,,,,,,,,,,,,,,,,,,,,,,,,,,,,,
,,,,,,,,,,,,,,,,,,,,,,,,,,,,,,
,,,,,,,,,,,,,,,,,,,,,,,,,,,,,,
,,,,,,,,,,,,,,,,,,,,,,,,,,,,,,
,,,,,,,,,,,,,,,,,,,,,,,,,,,,,,
,,,,,,,,,,,,,,,,,,,,,,,,,,,,,,
,,,,,,,,,,,,,,,,,,,,,,,,,,,,,,
,,,,,,,,,,,,,,,,,,,,,,,,,,,,,,
,,,,,,,,,,,,,,,,,,,,,,,,,,,,,,
,,,,,,,,,,,,,,,,,,,,,,,,,,,,,,
,,,,,,,,,,,,,,,,,,,,,,,,,,,,,,
,,,,,,,,,,,,,,,,,,,,,,,,,,,,,,
,,,,,,,,,,,,,,,,,,,,,,,,,,,,,,
,,,,,,,,,,,,,,,,,,,,,,,,,,,,,,
,,,,,,,,,,,,,,,,,,,,,,,,,,,,,,
,,,,,,,,,,,,,,,,,,,,,,,,,,,,,,
,,,,,,,,,,,,,,,,,,,,,,,,,,,,,,
,,,,,,,,,,,,,,,,,,,,,,,,,,,,,,
,,,,,,,,,,,,,,,,,,,,,,,,,,,,,,
,,,,,,,,,,,,,,,,,,,,,,,,,,,,,,
,,,,,,,,,,,,,,,,,,,,,,,,,,,,,,
,,,,,,,,,,,,,,,,,,,,,,,,,,,,,,
,,,,,,,,,,,,,,,,,,,,,,,,,,,,,,
,,,,,,,,,,,,,,,,,,,,,,,,,,,,,,
,,,,,,,,,,,,,,,,,,,,,,,,,,,,,,
,,,,,,,,,,,,,,,,,,,,,,,,,,,,,,
,,,,,,,,,,,,,,,,,,,,,,,,,,,,,,
,,,,,,,,,,,,,,,,,,,,,,,,,,,,,,
,,,,,,,,,,,,,,,,,,,,,,,,,,,,,,
,,,,,,,,,,,,,,,,,,,,,,,,,,,,,,
,,,,,,,,,,,,,,,,,,,,,,,,,,,,,,
,,,,,,,,,,,,,,,,,,,,,,,,,,,,,,
,,,,,,,,,,,,,,,,,,,,,,,,,,,,,,
,,,,,,,,,,,,,,,,,,,,,,,,,,,,,,
,,,,,,,,,,,,,,,,,,,,,,,,,,,,,,
,,,,,,,,,,,,,,,,,,,,,,,,,,,,,,
,,,,,,,,,,,,,,,,,,,,,,,,,,,,,,
,,,,,,,,,,,,,,,,,,,,,,,,,,,,,,
,,,,,,,,,,,,,,,,,,,,,,,,,,,,,,
,,,,,,,,,,,,,,,,,,,,,,,,,,,,,,
,,,,,,,,,,,,,,,,,,,,,,,,,,,,,,
,,,,,,,,,,,,,,,,,,,,,,,,,,,,,,
,,,,,,,,,,,,,,,,,,,,,,,,,,,,,,
,,,,,,,,,,,,,,,,,,,,,,,,,,,,,,
,,,,,,,,,,,,,,,,,,,,,,,,,,,,,,
,,,,,,,,,,,,,,,,,,,,,,,,,,,,,,
,,,,,,,,,,,,,,,,,,,,,,,,,,,,,,
,,,,,,,,,,,,,,,,,,,,,,,,,,,,,,
,,,,,,,,,,,,,,,,,,,,,,,,,,,,,,
,,,,,,,,,,,,,,,,,,,,,,,,,,,,,,
,,,,,,,,,,,,,,,,,,,,,,,,,,,,,,
,,,,,,,,,,,,,,,,,,,,,,,,,,,,,,
,,,,,,,,,,,,,,,,,,,,,,,,,,,,,,
,,,,,,,,,,,,,,,,,,,,,,,,,,,,,,
,,,,,,,,,,,,,,,,,,,,,,,,,,,,,,
,,,,,,,,,,,,,,,,,,,,,,,,,,,,,,
,,,,,,,,,,,,,,,,,,,,,,,,,,,,,,
,,,,,,,,,,,,,,,,,,,,,,,,,,,,,,
,,,,,,,,,,,,,,,,,,,,,,,,,,,,,,
,,,,,,,,,,,,,,,,,,,,,,,,,,,,,,
,,,,,,,,,,,,,,,,,,,,,,,,,,,,,,
,,,,,,,,,,,,,,,,,,,,,,,,,,,,,,
,,,,,,,,,,,,,,,,,,,,,,,,,,,,,,
,,,,,,,,,,,,,,,,,,,,,,,,,,,,,,
,,,,,,,,,,,,,,,,,,,,,,,,,,,,,,
,,,,,,,,,,,,,,,,,,,,,,,,,,,,,,
,,,,,,,,,,,,,,,,,,,,,,,,,,,,,,
,,,,,,,,,,,,,,,,,,,,,,,,,,,,,,
,,,,,,,,,,,,,,,,,,,,,,,,,,,,,,
,,,,,,,,,,,,,,,,,,,,,,,,,,,,,,
,,,,,,,,,,,,,,,,,,,,,,,,,,,,,,
,,,,,,,,,,,,,,,,,,,,,,,,,,,,,,
,,,,,,,,,,,,,,,,,,,,,,,,,,,,,,
,,,,,,,,,,,,,,,,,,,,,,,,,,,,,,
,,,,,,,,,,,,,,,,,,,,,,,,,,,,,,
,,,,,,,,,,,,,,,,,,,,,,,,,,,,,,
,,,,,,,,,,,,,,,,,,,,,,,,,,,,,,
,,,,,,,,,,,,,,,,,,,,,,,,,,,,,,
,,,,,,,,,,,,,,,,,,,,,,,,,,,,,,
,,,,,,,,,,,,,,,,,,,,,,,,,,,,,,
,,,,,,,,,,,,,,,,,,,,,,,,,,,,,,
,,,,,,,,,,,,,,,,,,,,,,,,,,,,,,
,,,,,,,,,,,,,,,,,,,,,,,,,,,,,,
,,,,,,,,,,,,,,,,,,,,,,,,,,,,,,
,,,,,,,,,,,,,,,,,,,,,,,,,,,,,,
,,,,,,,,,,,,,,,,,,,,,,,,,,,,,,
,,,,,,,,,,,,,,,,,,,,,,,,,,,,,,
,,,,,,,,,,,,,,,,,,,,,,,,,,,,,,
,,,,,,,,,,,,,,,,,,,,,,,,,,,,,,
,,,,,,,,,,,,,,,,,,,,,,,,,,,,,,
,,,,,,,,,,,,,,,,,,,,,,,,,,,,,,
,,,,,,,,,,,,,,,,,,,,,,,,,,,,,,
,,,,,,,,,,,,,,,,,,,,,,,,,,,,,,
,,,,,,,,,,,,,,,,,,,,,,,,,,,,,,
,,,,,,,,,,,,,,,,,,,,,,,,,,,,,,
,,,,,,,,,,,,,,,,,,,,,,,,,,,,,,
,,,,,,,,,,,,,,,,,,,,,,,,,,,,,,
,,,,,,,,,,,,,,,,,,,,,,,,,,,,,,
,,,,,,,,,,,,,,,,,,,,,,,,,,,,,,
,,,,,,,,,,,,,,,,,,,,,,,,,,,,,,
,,,,,,,,,,,,,,,,,,,,,,,,,,,,,,
,,,,,,,,,,,,,,,,,,,,,,,,,,,,,,
,,,,,,,,,,,,,,,,,,,,,,,,,,,,,,
,,,,,,,,,,,,,,,,,,,,,,,,,,,,,,
,,,,,,,,,,,,,,,,,,,,,,,,,,,,,,
,,,,,,,,,,,,,,,,,,,,,,,,,,,,,,
,,,,,,,,,,,,,,,,,,,,,,,,,,,,,,
,,,,,,,,,,,,,,,,,,,,,,,,,,,,,,
,,,,,,,,,,,,,,,,,,,,,,,,,,,,,,
,,,,,,,,,,,,,,,,,,,,,,,,,,,,,,
,,,,,,,,,,,,,,,,,,,,,,,,,,,,,,
,,,,,,,,,,,,,,,,,,,,,,,,,,,,,,
,,,,,,,,,,,,,,,,,,,,,,,,,,,,,,
,,,,,,,,,,,,,,,,,,,,,,,,,,,,,,
,,,,,,,,,,,,,,,,,,,,,,,,,,,,,,
,,,,,,,,,,,,,,,,,,,,,,,,,,,,,,
,,,,,,,,,,,,,,,,,,,,,,,,,,,,,,
,,,,,,,,,,,,,,,,,,,,,,,,,,,,,,
,,,,,,,,,,,,,,,,,,,,,,,,,,,,,,
,,,,,,,,,,,,,,,,,,,,,,,,,,,,,,
,,,,,,,,,,,,,,,,,,,,,,,,,,,,,,
,,,,,,,,,,,,,,,,,,,,,,,,,,,,,,
,,,,,,,,,,,,,,,,,,,,,,,,,,,,,,
,,,,,,,,,,,,,,,,,,,,,,,,,,,,,,
,,,,,,,,,,,,,,,,,,,,,,,,,,,,,,
,,,,,,,,,,,,,,,,,,,,,,,,,,,,,,
,,,,,,,,,,,,,,,,,,,,,,,,,,,,,,
,,,,,,,,,,,,,,,,,,,,,,,,,,,,,,
,,,,,,,,,,,,,,,,,,,,,,,,,,,,,,
,,,,,,,,,,,,,,,,,,,,,,,,,,,,,,
,,,,,,,,,,,,,,,,,,,,,,,,,,,,,,
,,,,,,,,,,,,,,,,,,,,,,,,,,,,,,
,,,,,,,,,,,,,,,,,,,,,,,,,,,,,,
,,,,,,,,,,,,,,,,,,,,,,,,,,,,,,
,,,,,,,,,,,,,,,,,,,,,,,,,,,,,,
,,,,,,,,,,,,,,,,,,,,,,,,,,,,,,
,,,,,,,,,,,,,,,,,,,,,,,,,,,,,,
,,,,,,,,,,,,,,,,,,,,,,,,,,,,,,
,,,,,,,,,,,,,,,,,,,,,,,,,,,,,,
,,,,,,,,,,,,,,,,,,,,,,,,,,,,,,
,,,,,,,,,,,,,,,,,,,,,,,,,,,,,,
,,,,,,,,,,,,,,,,,,,,,,,,,,,,,,
,,,,,,,,,,,,,,,,,,,,,,,,,,,,,,
,,,,,,,,,,,,,,,,,,,,,,,,,,,,,,
,,,,,,,,,,,,,,,,,,,,,,,,,,,,,,
,,,,,,,,,,,,,,,,,,,,,,,,,,,,,,
,,,,,,,,,,,,,,,,,,,,,,,,,,,,,,
,,,,,,,,,,,,,,,,,,,,,,,,,,,,,,
,,,,,,,,,,,,,,,,,,,,,,,,,,,,,,
,,,,,,,,,,,,,,,,,,,,,,,,,,,,,,
,,,,,,,,,,,,,,,,,,,,,,,,,,,,,,
,,,,,,,,,,,,,,,,,,,,,,,,,,,,,,
,,,,,,,,,,,,,,,,,,,,,,,,,,,,,,
,,,,,,,,,,,,,,,,,,,,,,,,,,,,,,
,,,,,,,,,,,,,,,,,,,,,,,,,,,,,,
,,,,,,,,,,,,,,,,,,,,,,,,,,,,,,
,,,,,,,,,,,,,,,,,,,,,,,,,,,,,,
,,,,,,,,,,,,,,,,,,,,,,,,,,,,,,
,,,,,,,,,,,,,,,,,,,,,,,,,,,,,,
,,,,,,,,,,,,,,,,,,,,,,,,,,,,,,
,,,,,,,,,,,,,,,,,,,,,,,,,,,,,,
,,,,,,,,,,,,,,,,,,,,,,,,,,,,,,
,,,,,,,,,,,,,,,,,,,,,,,,,,,,,,
,,,,,,,,,,,,,,,,,,,,,,,,,,,,,,
,,,,,,,,,,,,,,,,,,,,,,,,,,,,,,
,,,,,,,,,,,,,,,,,,,,,,,,,,,,,,
,,,,,,,,,,,,,,,,,,,,,,,,,,,,,,
,,,,,,,,,,,,,,,,,,,,,,,,,,,,,,
,,,,,,,,,,,,,,,,,,,,,,,,,,,,,,
,,,,,,,,,,,,,,,,,,,,,,,,,,,,,,
,,,,,,,,,,,,,,,,,,,,,,,,,,,,,,
,,,,,,,,,,,,,,,,,,,,,,,,,,,,,,
,,,,,,,,,,,,,,,,,,,,,,,,,,,,,,
,,,,,,,,,,,,,,,,,,,,,,,,,,,,,,
,,,,,,,,,,,,,,,,,,,,,,,,,,,,,,
,,,,,,,,,,,,,,,,,,,,,,,,,,,,,,
,,,,,,,,,,,,,,,,,,,,,,,,,,,,,,
,,,,,,,,,,,,,,,,,,,,,,,,,,,,,,
,,,,,,,,,,,,,,,,,,,,,,,,,,,,,,
,,,,,,,,,,,,,,,,,,,,,,,,,,,,,,
,,,,,,,,,,,,,,,,,,,,,,,,,,,,,,
,,,,,,,,,,,,,,,,,,,,,,,,,,,,,,
,,,,,,,,,,,,,,,,,,,,,,,,,,,,,,
,,,,,,,,,,,,,,,,,,,,,,,,,,,,,,
,,,,,,,,,,,,,,,,,,,,,,,,,,,,,,
,,,,,,,,,,,,,,,,,,,,,,,,,,,,,,
,,,,,,,,,,,,,,,,,,,,,,,,,,,,,,
,,,,,,,,,,,,,,,,,,,,,,,,,,,,,,
,,,,,,,,,,,,,,,,,,,,,,,,,,,,,,
,,,,,,,,,,,,,,,,,,,,,,,,,,,,,,
,,,,,,,,,,,,,,,,,,,,,,,,,,,,,,
,,,,,,,,,,,,,,,,,,,,,,,,,,,,,,
,,,,,,,,,,,,,,,,,,,,,,,,,,,,,,
,,,,,,,,,,,,,,,,,,,,,,,,,,,,,,
,,,,,,,,,,,,,,,,,,,,,,,,,,,,,,
,,,,,,,,,,,,,,,,,,,,,,,,,,,,,,
,,,,,,,,,,,,,,,,,,,,,,,,,,,,,,
,,,,,,,,,,,,,,,,,,,,,,,,,,,,,,
,,,,,,,,,,,,,,,,,,,,,,,,,,,,,,
,,,,,,,,,,,,,,,,,,,,,,,,,,,,,,
,,,,,,,,,,,,,,,,,,,,,,,,,,,,,,
,,,,,,,,,,,,,,,,,,,,,,,,,,,,,,
,,,,,,,,,,,,,,,,,,,,,,,,,,,,,,
,,,,,,,,,,,,,,,,,,,,,,,,,,,,,,
,,,,,,,,,,,,,,,,,,,,,,,,,,,,,,
,,,,,,,,,,,,,,,,,,,,,,,,,,,,,,
,,,,,,,,,,,,,,,,,,,,,,,,,,,,,,
,,,,,,,,,,,,,,,,,,,,,,,,,,,,,,
,,,,,,,,,,,,,,,,,,,,,,,,,,,,,,
,,,,,,,,,,,,,,,,,,,,,,,,,,,,,,
,,,,,,,,,,,,,,,,,,,,,,,,,,,,,,
,,,,,,,,,,,,,,,,,,,,,,,,,,,,,,
,,,,,,,,,,,,,,,,,,,,,,,,,,,,,,
,,,,,,,,,,,,,,,,,,,,,,,,,,,,,,
,,,,,,,,,,,,,,,,,,,,,,,,,,,,,,
,,,,,,,,,,,,,,,,,,,,,,,,,,,,,,
,,,,,,,,,,,,,,,,,,,,,,,,,,,,,,
,,,,,,,,,,,,,,,,,,,,,,,,,,,,,,
,,,,,,,,,,,,,,,,,,,,,,,,,,,,,,
,,,,,,,,,,,,,,,,,,,,,,,,,,,,,,
,,,,,,,,,,,,,,,,,,,,,,,,,,,,,,
,,,,,,,,,,,,,,,,,,,,,,,,,,,,,,
,,,,,,,,,,,,,,,,,,,,,,,,,,,,,,
,,,,,,,,,,,,,,,,,,,,,,,,,,,,,,
,,,,,,,,,,,,,,,,,,,,,,,,,,,,,,
,,,,,,,,,,,,,,,,,,,,,,,,,,,,,,
,,,,,,,,,,,,,,,,,,,,,,,,,,,,,,
,,,,,,,,,,,,,,,,,,,,,,,,,,,,,,
,,,,,,,,,,,,,,,,,,,,,,,,,,,,,,
,,,,,,,,,,,,,,,,,,,,,,,,,,,,,,
,,,,,,,,,,,,,,,,,,,,,,,,,,,,,,
,,,,,,,,,,,,,,,,,,,,,,,,,,,,,,
,,,,,,,,,,,,,,,,,,,,,,,,,,,,,,
,,,,,,,,,,,,,,,,,,,,,,,,,,,,,,
,,,,,,,,,,,,,,,,,,,,,,,,,,,,,,
,,,,,,,,,,,,,,,,,,,,,,,,,,,,,,
,,,,,,,,,,,,,,,,,,,,,,,,,,,,,,
,,,,,,,,,,,,,,,,,,,,,,,,,,,,,,
,,,,,,,,,,,,,,,,,,,,,,,,,,,,,,
,,,,,,,,,,,,,,,,,,,,,,,,,,,,,,
,,,,,,,,,,,,,,,,,,,,,,,,,,,,,,
,,,,,,,,,,,,,,,,,,,,,,,,,,,,,,
,,,,,,,,,,,,,,,,,,,,,,,,,,,,,,
,,,,,,,,,,,,,,,,,,,,,,,,,,,,,,
,,,,,,,,,,,,,,,,,,,,,,,,,,,,,,
,,,,,,,,,,,,,,,,,,,,,,,,,,,,,,
,,,,,,,,,,,,,,,,,,,,,,,,,,,,,,
,,,,,,,,,,,,,,,,,,,,,,,,,,,,,,
,,,,,,,,,,,,,,,,,,,,,,,,,,,,,,
,,,,,,,,,,,,,,,,,,,,,,,,,,,,,,
,,,,,,,,,,,,,,,,,,,,,,,,,,,,,,
,,,,,,,,,,,,,,,,,,,,,,,,,,,,,,
,,,,,,,,,,,,,,,,,,,,,,,,,,,,,,
,,,,,,,,,,,,,,,,,,,,,,,,,,,,,,
,,,,,,,,,,,,,,,,,,,,,,,,,,,,,,
,,,,,,,,,,,,,,,,,,,,,,,,,,,,,,
,,,,,,,,,,,,,,,,,,,,,,,,,,,,,,
,,,,,,,,,,,,,,,,,,,,,,,,,,,,,,
,,,,,,,,,,,,,,,,,,,,,,,,,,,,,,
,,,,,,,,,,,,,,,,,,,,,,,,,,,,,,
,,,,,,,,,,,,,,,,,,,,,,,,,,,,,,
,,,,,,,,,,,,,,,,,,,,,,,,,,,,,,
,,,,,,,,,,,,,,,,,,,,,,,,,,,,,,
,,,,,,,,,,,,,,,,,,,,,,,,,,,,,,
,,,,,,,,,,,,,,,,,,,,,,,,,,,,,,
,,,,,,,,,,,,,,,,,,,,,,,,,,,,,,
,,,,,,,,,,,,,,,,,,,,,,,,,,,,,,
,,,,,,,,,,,,,,,,,,,,,,,,,,,,,,
,,,,,,,,,,,,,,,,,,,,,,,,,,,,,,
,,,,,,,,,,,,,,,,,,,,,,,,,,,,,,
,,,,,,,,,,,,,,,,,,,,,,,,,,,,,,
,,,,,,,,,,,,,,,,,,,,,,,,,,,,,,
,,,,,,,,,,,,,,,,,,,,,,,,,,,,,,
,,,,,,,,,,,,,,,,,,,,,,,,,,,,,,
,,,,,,,,,,,,,,,,,,,,,,,,,,,,,,
,,,,,,,,,,,,,,,,,,,,,,,,,,,,,,
,,,,,,,,,,,,,,,,,,,,,,,,,,,,,,
,,,,,,,,,,,,,,,,,,,,,,,,,,,,,,
,,,,,,,,,,,,,,,,,,,,,,,,,,,,,,
,,,,,,,,,,,,,,,,,,,,,,,,,,,,,,
,,,,,,,,,,,,,,,,,,,,,,,,,,,,,,
,,,,,,,,,,,,,,,,,,,,,,,,,,,,,,
,,,,,,,,,,,,,,,,,,,,,,,,,,,,,,
,,,,,,,,,,,,,,,,,,,,,,,,,,,,,,
,,,,,,,,,,,,,,,,,,,,,,,,,,,,,,
,,,,,,,,,,,,,,,,,,,,,,,,,,,,,,
,,,,,,,,,,,,,,,,,,,,,,,,,,,,,,
,,,,,,,,,,,,,,,,,,,,,,,,,,,,,,
,,,,,,,,,,,,,,,,,,,,,,,,,,,,,,
,,,,,,,,,,,,,,,,,,,,,,,,,,,,,,
,,,,,,,,,,,,,,,,,,,,,,,,,,,,,,
,,,,,,,,,,,,,,,,,,,,,,,,,,,,,,
,,,,,,,,,,,,,,,,,,,,,,,,,,,,,,
,,,,,,,,,,,,,,,,,,,,,,,,,,,,,,
,,,,,,,,,,,,,,,,,,,,,,,,,,,,,,
,,,,,,,,,,,,,,,,,,,,,,,,,,,,,,
,,,,,,,,,,,,,,,,,,,,,,,,,,,,,,
,,,,,,,,,,,,,,,,,,,,,,,,,,,,,,
,,,,,,,,,,,,,,,,,,,,,,,,,,,,,,
,,,,,,,,,,,,,,,,,,,,,,,,,,,,,,
,,,,,,,,,,,,,,,,,,,,,,,,,,,,,,
,,,,,,,,,,,,,,,,,,,,,,,,,,,,,,
,,,,,,,,,,,,,,,,,,,,,,,,,,,,,,
,,,,,,,,,,,,,,,,,,,,,,,,,,,,,,
,,,,,,,,,,,,,,,,,,,,,,,,,,,,,,
,,,,,,,,,,,,,,,,,,,,,,,,,,,,,,
,,,,,,,,,,,,,,,,,,,,,,,,,,,,,,
,,,,,,,,,,,,,,,,,,,,,,,,,,,,,,
,,,,,,,,,,,,,,,,,,,,,,,,,,,,,,
,,,,,,,,,,,,,,,,,,,,,,,,,,,,,,
,,,,,,,,,,,,,,,,,,,,,,,,,,,,,,
,,,,,,,,,,,,,,,,,,,,,,,,,,,,,,
,,,,,,,,,,,,,,,,,,,,,,,,,,,,,,
,,,,,,,,,,,,,,,,,,,,,,,,,,,,,,
,,,,,,,,,,,,,,,,,,,,,,,,,,,,,,
,,,,,,,,,,,,,,,,,,,,,,,,,,,,,,
,,,,,,,,,,,,,,,,,,,,,,,,,,,,,,
,,,,,,,,,,,,,,,,,,,,,,,,,,,,,,
,,,,,,,,,,,,,,,,,,,,,,,,,,,,,,
,,,,,,,,,,,,,,,,,,,,,,,,,,,,,,
,,,,,,,,,,,,,,,,,,,,,,,,,,,,,,
,,,,,,,,,,,,,,,,,,,,,,,,,,,,,,
,,,,,,,,,,,,,,,,,,,,,,,,,,,,,,
,,,,,,,,,,,,,,,,,,,,,,,,,,,,,,
,,,,,,,,,,,,,,,,,,,,,,,,,,,,,,
,,,,,,,,,,,,,,,,,,,,,,,,,,,,,,
,,,,,,,,,,,,,,,,,,,,,,,,,,,,,,
,,,,,,,,,,,,,,,,,,,,,,,,,,,,,,
,,,,,,,,,,,,,,,,,,,,,,,,,,,,,,
,,,,,,,,,,,,,,,,,,,,,,,,,,,,,,
,,,,,,,,,,,,,,,,,,,,,,,,,,,,,,
,,,,,,,,,,,,,,,,,,,,,,,,,,,,,,
,,,,,,,,,,,,,,,,,,,,,,,,,,,,,,
,,,,,,,,,,,,,,,,,,,,,,,,,,,,,,
,,,,,,,,,,,,,,,,,,,,,,,,,,,,,,
,,,,,,,,,,,,,,,,,,,,,,,,,,,,,,
,,,,,,,,,,,,,,,,,,,,,,,,,,,,,,
,,,,,,,,,,,,,,,,,,,,,,,,,,,,,,
,,,,,,,,,,,,,,,,,,,,,,,,,,,,,,
,,,,,,,,,,,,,,,,,,,,,,,,,,,,,,
,,,,,,,,,,,,,,,,,,,,,,,,,,,,,,
,,,,,,,,,,,,,,,,,,,,,,,,,,,,,,
,,,,,,,,,,,,,,,,,,,,,,,,,,,,,,
,,,,,,,,,,,,,,,,,,,,,,,,,,,,,,
,,,,,,,,,,,,,,,,,,,,,,,,,,,,,,
,,,,,,,,,,,,,,,,,,,,,,,,,,,,,,
,,,,,,,,,,,,,,,,,,,,,,,,,,,,,,
,,,,,,,,,,,,,,,,,,,,,,,,,,,,,,
,,,,,,,,,,,,,,,,,,,,,,,,,,,,,,
,,,,,,,,,,,,,,,,,,,,,,,,,,,,,,
,,,,,,,,,,,,,,,,,,,,,,,,,,,,,,
,,,,,,,,,,,,,,,,,,,,,,,,,,,,,,
,,,,,,,,,,,,,,,,,,,,,,,,,,,,,,
,,,,,,,,,,,,,,,,,,,,,,,,,,,,,,
,,,,,,,,,,,,,,,,,,,,,,,,,,,,,,
,,,,,,,,,,,,,,,,,,,,,,,,,,,,,,
,,,,,,,,,,,,,,,,,,,,,,,,,,,,,,
,,,,,,,,,,,,,,,,,,,,,,,,,,,,,,
,,,,,,,,,,,,,,,,,,,,,,,,,,,,,,
,,,,,,,,,,,,,,,,,,,,,,,,,,,,,,
,,,,,,,,,,,,,,,,,,,,,,,,,,,,,,
,,,,,,,,,,,,,,,,,,,,,,,,,,,,,,
,,,,,,,,,,,,,,,,,,,,,,,,,,,,,,
,,,,,,,,,,,,,,,,,,,,,,,,,,,,,,
,,,,,,,,,,,,,,,,,,,,,,,,,,,,,,
,,,,,,,,,,,,,,,,,,,,,,,,,,,,,,
,,,,,,,,,,,,,,,,,,,,,,,,,,,,,,
,,,,,,,,,,,,,,,,,,,,,,,,,,,,,,
,,,,,,,,,,,,,,,,,,,,,,,,,,,,,,
,,,,,,,,,,,,,,,,,,,,,,,,,,,,,,
,,,,,,,,,,,,,,,,,,,,,,,,,,,,,,
,,,,,,,,,,,,,,,,,,,,,,,,,,,,,,
,,,,,,,,,,,,,,,,,,,,,,,,,,,,,,
,,,,,,,,,,,,,,,,,,,,,,,,,,,,,,
,,,,,,,,,,,,,,,,,,,,,,,,,,,,,,
,,,,,,,,,,,,,,,,,,,,,,,,,,,,,,